{"type": "FeatureCollection", "features": [{"type": "Feature", "properties": {}, "geometry": {"type": "Polygon", "coordinates": [[[40.3678604, 44.7063349], [40.3661648, 44.6890472], [40.4042993, 44.6731735], [40.4017664, 44.6550444], [40.3776697, 44.6353444], [40.3428751, 44.6452636], [40.3544944, 44.5972829], [40.3366455, 44.5675627], [40.3495819, 44.5479173], [40.4150382, 44.5349946], [40.4243456, 44.5139159], [40.3834432, 44.4772787], [40.4119725, 44.4229413], [40.4349182, 44.4215166], [40.4829016, 44.3153721], [40.3598294, 44.2467453], [40.4060976, 44.1673127], [40.4055461, 44.1328484], [40.4326708, 44.1140168], [40.4137683, 44.0638171], [40.4804755, 43.9645059], [40.4096867, 43.9387685], [40.402758, 43.8948156], [40.4199159, 43.8804416], [40.3802336, 43.8200994], [40.3713286, 43.7772619], [40.3040556, 43.781756], [40.2616982, 43.7601459], [40.2168648, 43.7791163], [40.1890617, 43.8729207], [40.1509014, 43.8576949], [40.1045782, 43.8668715], [40.0913538, 43.8453821], [40.0434752, 43.880652], [40.0124249, 43.8845766], [39.9229854, 43.9725405], [39.9089201, 43.9738829], [39.9126762, 43.9394982], [39.8514575, 43.92423], [39.8077437, 43.9336363], [39.7777748, 43.9617671], [39.8191219, 43.9836543], [39.797083, 43.9971935], [39.7967834, 44.0174595], [39.8309651, 44.0788199], [39.7618047, 44.1488176], [39.7685962, 44.180348], [39.8650268, 44.1843066], [39.8953693, 44.1249407], [39.9647738, 44.1046591], [39.9878187, 44.0761516], [40.0178518, 44.0878412], [40.0161267, 44.1064376], [40.0546729, 44.1365102], [40.0744628, 44.122049], [40.0930244, 44.129584], [40.0687521, 44.1456636], [40.0875585, 44.1786975], [40.0762855, 44.2299922], [40.0935173, 44.2468289], [40.0609889, 44.2686689], [39.989763, 44.2613097], [39.9740573, 44.2754138], [39.9772084, 44.3268149], [39.9618624, 44.3479281], [39.9222574, 44.3373143], [39.8954986, 44.3516376], [39.8697712, 44.3381863], [39.8443135, 44.3533926], [39.8790917, 44.3965421], [39.8625972, 44.4143147], [39.8794056, 44.4327656], [39.8741643, 44.5913943], [39.9291282, 44.5902936], [39.9328774, 44.6028921], [39.9148784, 44.6084683], [39.9203841, 44.6261085], [39.9044178, 44.6417709], [39.9159623, 44.6510738], [39.8962476, 44.6618048], [39.9273565, 44.6873103], [39.9100781, 44.7130039], [39.9428183, 44.7363027], [39.9875098, 44.7174554], [40.0290165, 44.7469979], [39.981417, 44.8004363], [39.9576319, 44.7936027], [39.9454682, 44.809625], [39.9390725, 44.8270301], [39.98539, 44.8304558], [39.9757228, 44.8473557], [39.9576832, 44.8423188], [39.9339444, 44.8838526], [39.9634786, 44.8924253], [39.9418936, 44.9297581], [39.9244132, 44.9270935], [39.8851475, 45.0230499], [39.7640998, 44.9903734], [39.7737527, 44.9737101], [39.6924252, 44.9514029], [39.6817332, 44.9637189], [39.6962324, 44.9684177], [39.6784725, 44.9733991], [39.6909095, 44.9814439], [39.6714623, 44.9801197], [39.6775674, 44.9936896], [39.6200133, 44.960311], [39.5986161, 44.9827505], [39.6568283, 45.0143603], [39.6355278, 45.0174973], [39.6524243, 45.0336827], [39.6221292, 45.0490368], [39.5830299, 45.0550568], [39.5569042, 45.0298843], [39.5454186, 45.0335739], [39.5544505, 45.0468175], [39.5297732, 45.0432422], [39.5442505, 45.0550851], [39.5231798, 45.0546178], [39.5090621, 45.0365972], [39.4712487, 45.0356908], [39.4750283, 44.9876669], [39.4945097, 44.9752108], [39.5190181, 44.9872393], [39.5044561, 44.9680277], [39.5748696, 44.9416169], [39.5729906, 44.9259013], [39.6409238, 44.8955618], [39.6371104, 44.8785319], [39.6529099, 44.8741744], [39.5577871, 44.8366375], [39.5689003, 44.8277084], [39.5595782, 44.8069588], [39.4829903, 44.8201531], [39.4843287, 44.8044419], [39.456121, 44.817524], [39.3571894, 44.8087113], [39.1527718, 44.8359185], [39.0907591, 44.8171631], [38.9880453, 44.8442168], [38.9790259, 44.8585695], [38.8547547, 44.8938467], [38.8454272, 44.9244317], [38.7863397, 44.9439767], [38.7818548, 44.967654], [38.75714, 44.9480157], [38.6840182, 44.9514152], [38.6897178, 45.0599755], [38.7077929, 45.0645623], [38.7232848, 45.0402795], [38.7679097, 45.0566392], [38.7564685, 45.0331227], [38.8060531, 44.9956857], [38.8174045, 45.0125034], [38.8603849, 45.0016211], [38.8546379, 45.029783], [38.899565, 45.054009], [38.8997742, 45.0224542], [38.9530777, 45.0355252], [38.9534881, 44.998205], [39.0142255, 45.0039787], [39.0224589, 44.9679589], [39.0414767, 44.9848709], [39.0703064, 44.9755433], [39.1167719, 44.998242], [39.2214422, 44.9889885], [39.2304682, 45.0180078], [39.2623462, 45.0034397], [39.2716741, 45.0298716], [39.2797642, 45.0160267], [39.3220735, 45.0301747], [39.3260697, 45.0448117], [39.3760523, 45.0565539], [39.4033932, 45.0936769], [39.4239922, 45.0896768], [39.4399271, 45.1109098], [39.4629055, 45.101961], [39.4545248, 45.1212092], [39.5133075, 45.1611763], [39.5386919, 45.1612681], [39.5456117, 45.1885878], [39.6203276, 45.2171133], [39.6881199, 45.1927707], [39.6795645, 45.1669201], [39.6998281, 45.1470497], [39.727139, 45.1517847], [39.7478185, 45.1322449], [39.8006592, 45.1306312], [39.8443378, 45.1070005], [39.8705943, 45.1125852], [39.9001473, 45.0966772], [39.8940739, 45.0846942], [40.065039, 45.0949599], [40.0738084, 45.1099091], [40.0894611, 45.0991463], [40.0892318, 45.1100533], [40.144704, 45.1221546], [40.227033, 45.1177569], [40.2486596, 45.0973474], [40.2765122, 45.1055708], [40.2946642, 45.0860836], [40.284041, 45.0862189], [40.288202, 45.0658361], [40.3889458, 45.0339968], [40.527814, 44.9334741], [40.5331795, 44.9004246], [40.5879384, 44.8635346], [40.5865289, 44.828765], [40.6330714, 44.7759825], [40.652451, 44.6878529], [40.7334655, 44.6081982], [40.7243936, 44.5575646], [40.775739, 44.4650237], [40.619524, 44.465084], [40.619703, 44.4832], [40.6612499, 44.4827091], [40.670221, 44.545973], [40.643364, 44.584312], [40.6437306, 44.6358057], [40.6184588, 44.635833], [40.6187104, 44.6537713], [40.5684248, 44.6544394], [40.5641394, 44.7441983], [40.5187367, 44.7411859], [40.527497, 44.762615], [40.4299974, 44.7624618], [40.4298276, 44.7353723], [40.3678604, 44.7063349]]]}}]}