{"type": "FeatureCollection", "features": [{"type": "Feature", "properties": {}, "geometry": {"type": "MultiPolygon", "coordinates": [[[[46.391716, 43.201677], [46.4243561, 43.2989036], [46.3960518, 43.3356575], [46.3698738, 43.3416636], [46.3353554, 43.4002903], [46.327642, 43.4500986], [46.3878509, 43.4786307], [46.3901835, 43.497571], [46.4368942, 43.5375949], [46.4175557, 43.5966301], [46.4556148, 43.6341486], [46.4584958, 43.6635722], [46.5186088, 43.7055116], [46.5577374, 43.7601766], [46.6302406, 43.7695461], [46.6619049, 43.8246388], [46.6620886, 43.835899], [46.6214443, 43.8335583], [46.5887855, 43.8703386], [46.5391062, 43.8583403], [46.4990365, 43.8622362], [46.4922844, 43.8787142], [46.4510911, 43.8750608], [46.4620945, 43.9325368], [46.4413408, 43.9556543], [46.440632, 44.0028903], [46.3214161, 44.0105126], [46.3589611, 43.944428], [46.2511331, 43.9458787], [46.2504726, 43.8814873], [46.2181815, 43.8597338], [46.0956745, 43.8606982], [46.0803418, 43.8164693], [46.0446467, 43.82028], [46.0035788, 43.8813818], [46.0592932, 43.8852351], [46.0720803, 43.9302987], [45.8882671, 43.950432], [45.8601121, 43.9709906], [45.796003, 43.9706054], [45.7956262, 43.9522262], [45.7195923, 43.9526755], [45.4888873, 44.0100226], [45.5029861, 44.1756877], [45.1034215, 44.1909081], [45.1366723, 44.2537973], [45.3715098, 44.2901445], [45.428468, 44.4249679], [45.3520047, 44.461984], [45.2251963, 44.464958], [45.227258, 44.5072503], [45.2620366, 44.5023069], [45.2665439, 44.51445], [45.236678, 44.5556988], [45.2607203, 44.5893439], [45.3843154, 44.6068143], [45.4123297, 44.5941606], [45.5219162, 44.6793978], [45.6555365, 44.8036917], [45.6134741, 44.8739849], [45.7051159, 44.9773628], [45.7834095, 44.9684875], [45.8137055, 44.9917214], [45.9824738, 44.9891213], [46.1553319, 44.9588269], [46.223731, 44.9727679], [46.358672, 44.9408001], [46.5116418, 44.9296499], [46.6350599, 44.8610659], [46.7668412, 44.8276111], [46.7581061, 44.7976862], [46.8307814, 44.7627437], [46.8261336, 44.8082815], [46.8601477, 44.7991743], [46.8869125, 44.8105127], [46.9329619, 44.7913865], [46.9340745, 44.7348712], [47.0479406, 44.7316825], [47.0717753, 44.7003698], [47.073171, 44.6673521], [47.0218373, 44.6562033], [46.9702724, 44.688194], [46.9235472, 44.6496596], [46.8772651, 44.6661343], [46.8503849, 44.6189885], [46.8243575, 44.6278973], [46.9148219, 44.4900716], [46.7807844, 44.4856133], [46.735997, 44.5108042], [46.7433238, 44.4822733], [46.7746338, 44.4589472], [46.8994741, 44.470973], [46.9631415, 44.3988611], [46.9486651, 44.3928593], [47.0065797, 44.3773957], [47.0392229, 44.3484235], [47.0800759, 44.2552192], [47.1296559, 44.2114715], [47.1890003, 44.2308554], [47.2373722, 44.2164672], [47.2769219, 44.1104805], [47.38319, 43.9913414], [47.4197909, 43.9012771], [47.4413636, 43.8749791], [47.4759381, 43.873204], [47.4826719, 43.8353695], [47.5273216, 43.848137], [47.5296467, 43.7963415], [47.4399949, 43.7177795], [47.4654823, 43.7016025], [47.4581376, 43.6827116], [47.3968973, 43.610496], [47.3700279, 43.6043197], [47.4039604, 43.5579295], [47.4168982, 43.4905685], [47.4328737, 43.4961281], [47.4515776, 43.4758115], [47.4682605, 43.4940533], [47.4913623, 43.6078136], [47.53548, 43.7129659], [47.5592476, 43.8611492], [47.7163548, 43.9256806], [47.7525106, 43.9125396], [47.6935561, 43.8608084], [47.6067335, 43.7454102], [47.5076063, 43.4824179], [47.4854274, 43.3139846], [47.5027683, 43.2897351], [47.5257749, 43.2998707], [47.5360845, 43.3364213], [47.5630014, 43.332666], [47.5656372, 43.3055517], [47.5571555, 43.2452575], [47.5224495, 43.2313249], [47.4766664, 43.1315239], [47.4684328, 43.0085475], [47.6976765, 42.8683347], [47.7184548, 42.8253944], [47.7190137, 42.7074524], [47.7611689, 42.6330447], [47.8007233, 42.6058637], [47.8872775, 42.5813748], [47.9525675, 42.462122], [48.0176097, 42.3856672], [48.0859484, 42.3394158], [48.2410648, 42.1364131], [48.2847664, 42.1077709], [48.3790684, 41.9412973], [48.4147574, 41.9219414], [48.4904893, 41.913598], [48.5429941, 41.8835765], [48.5926326, 41.8428911], [48.5793446, 41.816775], [48.3773438, 41.5910141], [48.2844654, 41.5608481], [48.252321, 41.5284019], [48.2029665, 41.5122831], [48.0647888, 41.4922877], [48.054184, 41.4671418], [48.0643381, 41.4599915], [48.0032336, 41.4162934], [47.9913394, 41.3557211], [47.9497854, 41.3505961], [47.9644572, 41.3163161], [47.890319, 41.2877347], [47.907954, 41.2797129], [47.9115427, 41.2551623], [47.8845068, 41.2184783], [47.8203534, 41.2219088], [47.7832638, 41.1850968], [47.7263049, 41.1935615], [47.7011076, 41.2260054], [47.6184254, 41.2342085], [47.5642093, 41.1980999], [47.5064852, 41.2258877], [47.4984225, 41.2682746], [47.4730573, 41.2554673], [47.454178, 41.2738567], [47.3768501, 41.2723368], [47.259245, 41.3378183], [47.2709683, 41.3537542], [47.2633774, 41.3890096], [47.221907, 41.4188057], [47.2421247, 41.4463479], [47.2111795, 41.4503207], [47.1928253, 41.4884325], [47.1594439, 41.4986622], [47.171622, 41.5270435], [47.1289962, 41.5508205], [47.109237, 41.5925727], [47.0514284, 41.5546212], [46.9914527, 41.5948918], [47.012304, 41.6274483], [46.9210569, 41.6855089], [46.9292568, 41.7078477], [46.8993308, 41.7327448], [46.8663157, 41.7202625], [46.8069067, 41.7619918], [46.7656077, 41.8009545], [46.7843046, 41.8162866], [46.7602487, 41.8625272], [46.7162985, 41.8474674], [46.722691, 41.8304915], [46.6664929, 41.8349878], [46.5853267, 41.8027586], [46.5564531, 41.820621], [46.5370359, 41.8804545], [46.5087402, 41.8897219], [46.4636735, 41.865622], [46.4237456, 41.8947035], [46.3995135, 41.9401964], [46.338853, 41.946056], [46.3207245, 41.9294315], [46.282439, 41.945439], [46.275469, 41.965852], [46.2458748, 41.979075], [46.2562329, 42.002251], [46.2242186, 42.0156648], [46.161577, 41.990417], [46.150327, 42.0078973], [46.113771, 41.996168], [46.085935, 42.005384], [46.082966, 42.029893], [46.038718, 42.020105], [45.987334, 42.045341], [45.954341, 42.023821], [45.929455, 42.031942], [45.928882, 42.056011], [45.913961, 42.062212], [45.9212725, 42.0808363], [45.896377, 42.106486], [45.803924, 42.11605], [45.78603, 42.102069], [45.7196615, 42.1653046], [45.647516, 42.186408], [45.608972, 42.233808], [45.6520716, 42.292134], [45.7383334, 42.293453], [45.7570128, 42.3258642], [45.7425062, 42.3334563], [45.734701, 42.378317], [45.77459, 42.428526], [45.775558, 42.488345], [45.9077529, 42.5542362], [45.8944279, 42.5808303], [45.9310438, 42.6018572], [45.9596956, 42.5796373], [46.0071246, 42.6003539], [46.0306915, 42.6212876], [46.009345, 42.6390982], [46.015698, 42.6759549], [46.0746363, 42.68102], [46.1107796, 42.7201967], [46.1771649, 42.7359474], [46.1491237, 42.7894199], [46.1170269, 42.8029092], [46.2079529, 42.8896716], [46.2390474, 42.8601747], [46.2704196, 42.8832267], [46.2945641, 42.8738046], [46.3103332, 42.8842526], [46.3056593, 42.9067587], [46.3709547, 42.8616173], [46.3672682, 42.8407322], [46.4270165, 42.8570932], [46.4524158, 42.890686], [46.5335777, 42.9237805], [46.4962596, 42.9450091], [46.495681, 42.9772059], [46.4699223, 43.0145269], [46.5043935, 43.0199488], [46.4980537, 43.0357756], [46.5256631, 43.0443383], [46.5063924, 43.0846485], [46.4353517, 43.0841154], [46.4187079, 43.1235283], [46.3880183, 43.148067], [46.4389486, 43.1858946], [46.391716, 43.201677]]], [[[47.6500219, 43.997713], [47.8582949, 43.9948652], [47.8891857, 43.9817045], [47.7698532, 43.9259807], [47.7391085, 43.9260885], [47.6547452, 43.9374047], [47.6326074, 43.9599097], [47.6500219, 43.997713]]], [[[47.5096478, 44.4820216], [47.4957564, 44.4509941], [47.4778174, 44.4626513], [47.4855454, 44.4806233], [47.5096478, 44.4820216]]]]}}]}