{"type": "FeatureCollection", "features": [{"type": "Feature", "properties": {}, "geometry": {"type": "MultiPolygon", "coordinates": [[[[132.3406298, 42.7538331], [132.3073288, 42.7507099], [132.3491306, 42.7819076], [132.3607206, 42.7338122], [132.3400841, 42.7297422], [132.3406298, 42.7538331]]], [[[132.4360036, 42.8410246], [132.4740155, 42.8083854], [132.4621561, 42.7939639], [132.4245387, 42.8369776], [132.3993195, 42.8355817], [132.3920557, 42.8596913], [132.4119048, 42.8618153], [132.4086347, 42.8863062], [132.4285475, 42.9026551], [132.4339233, 42.878223], [132.4541988, 42.867769], [132.4360036, 42.8410246]]], [[[131.7458201, 42.90556], [131.7227399, 42.90059], [131.7087791, 42.9207664], [131.7316406, 42.9236724], [131.7458201, 42.90556]]], [[[131.7594505, 42.9598693], [131.7239527, 42.9436851], [131.706631, 42.9783323], [131.7413591, 42.9825756], [131.7594505, 42.9598693]]], [[[131.8526035, 43.0600448], [131.9023799, 43.05746], [131.89565, 43.0300499], [131.932, 42.99242], [131.8889273, 42.9600526], [131.8703778, 42.9685445], [131.8393926, 42.9542177], [131.7453703, 42.9873654], [131.8110723, 43.0490017], [131.8577494, 43.0393737], [131.8526035, 43.0600448]]], [[[147.2231845, 45.1628118], [147.2676825, 45.2295688], [147.3752055, 45.2945732], [147.5201362, 45.3422846], [147.6539249, 45.5313551], [147.7978226, 45.6178871], [147.8991088, 45.6374834], [148.3479337, 45.6108634], [148.5213886, 45.7154052], [148.6788474, 45.7498455], [148.8199027, 45.7538183], [148.9636397, 45.7294529], [149.200869, 45.7576543], [149.4676494, 45.994636], [149.6447247, 46.0809215], [149.8222177, 46.2299523], [150.0645307, 46.357057], [150.1958909, 46.4056474], [150.3649049, 46.4274737], [150.4766863, 46.5221423], [150.4569003, 46.6230689], [150.4209804, 46.6953542], [150.431752, 46.7881942], [150.4989811, 46.8692011], [150.5710146, 46.9105637], [150.680417, 46.9370402], [150.7722763, 46.9359088], [150.920294, 46.8927238], [150.9764653, 46.8536335], [151.1991923, 46.583937], [151.1985476, 46.4826699], [151.1509257, 46.4091994], [150.8398515, 46.1174565], [150.5514135, 45.9569012], [150.4178149, 45.8158612], [150.324058, 45.7443605], [150.2007755, 45.669021], [150.0181679, 45.5937788], [149.8613761, 45.4778991], [149.6308941, 45.3850795], [149.4081081, 45.3736382], [149.145856, 45.3262703], [149.0732089, 45.2202148], [148.9715284, 45.1582211], [148.4088002, 45.0112514], [148.0569434, 44.7930082], [147.9044664, 44.7590582], [147.5598661, 44.5738107], [147.4553366, 44.4569933], [147.1781413, 44.3029683], [147.146187, 43.9564108], [147.193627, 43.8644667], [147.1953591, 43.821702], [147.18113, 43.7652639], [147.1404093, 43.7035844], [146.9747296, 43.5922618], [146.7769022, 43.5213544], [146.2925711, 43.2343547], [146.1175009, 43.1777339], [146.0592882, 43.1775632], [145.842442, 43.380848], [145.7594155, 43.5020499], [145.4473583, 43.6233], [145.2787509, 43.7355567], [145.2763591, 43.8397322], [145.320125, 43.9404274], [145.5138829, 44.1320481], [145.7278175, 44.4385582], [145.8756898, 44.6103694], [145.9716557, 44.6737081], [146.1246792, 44.714816], [146.2193231, 44.7136728], [146.337917, 44.6767153], [146.5196833, 44.6657907], [146.7248315, 44.75165], [146.8674923, 44.9275977], [146.9398879, 44.9830328], [147.1909045, 45.0749297], [147.2231845, 45.1628118]]], [[[141.2745831, 46.4912004], [141.3685409, 46.4704966], [141.4790867, 46.4064132], [141.5379912, 46.3441456], [141.5598689, 46.2687341], [141.5489614, 46.1869991], [141.5141704, 46.1304844], [141.4627903, 46.0878219], [141.3621639, 46.0438287], [141.219724, 46.0216527], [141.0747855, 46.0519701], [140.9812873, 46.1095464], [140.9324575, 46.1785762], [140.9254474, 46.3011395], [140.9725667, 46.3948151], [141.0537627, 46.4518114], [141.1661962, 46.4873068], [141.2745831, 46.4912004]]], [[[151.8174471, 46.5690971], [151.6723341, 46.584541], [151.5714315, 46.6234361], [151.4743082, 46.7045596], [151.4155484, 46.819053], [151.4353059, 46.9149382], [151.4880187, 46.975948], [151.8362959, 47.1500855], [151.945085, 47.2688671], [152.185796, 47.4849731], [152.2717371, 47.5391164], [152.3847549, 47.5732976], [152.5901501, 47.6698747], [152.634012, 47.704134], [152.6905663, 47.8217763], [152.7904522, 47.9316817], [152.9745345, 48.3958205], [153.0306637, 48.4441733], [153.1249386, 48.4856034], [153.2748657, 48.5003462], [153.3173958, 48.7996751], [153.2105542, 48.8695097], [153.166225, 48.9516145], [153.1841713, 49.0535283], [153.2179728, 49.0987021], [153.3015053, 49.1557158], [153.4260565, 49.1887858], [153.94266, 49.1726396], [154.2179248, 49.2941175], [154.3160483, 49.4184558], [154.1963118, 49.5928496], [154.1267877, 49.6441875], [154.0824298, 49.7166565], [154.0923576, 49.8364288], [154.1429188, 49.9155163], [154.2816132, 49.9918239], [154.4164689, 50.0165147], [154.4921149, 50.0144417], [154.6572368, 50.1378813], [154.6429989, 50.1821015], [154.6486464, 50.2423737], [154.6790744, 50.2952965], [154.7635428, 50.3613933], [155.1005901, 50.4836422], [155.3910204, 50.5560049], [155.2939077, 50.6725841], [155.2063456, 50.7386593], [155.1547209, 50.8235545], [155.1439875, 50.9094468], [155.2139724, 51.0274713], [155.3566478, 51.0997236], [155.4781738, 51.1189791], [155.6078995, 51.1183172], [155.8039621, 51.0784884], [156.1098568, 50.9696427], [156.2719738, 51.0324746], [156.3093053, 51.0716892], [156.5848693, 50.8516906], [156.8317679, 50.6867341], [156.7760265, 50.6493268], [156.6643459, 50.5162277], [156.381889, 50.3604856], [156.2887202, 50.2907488], [156.0999451, 50.1001013], [155.9634742, 50.0227848], [155.7565555, 49.9722304], [155.6036569, 49.850251], [155.4875583, 49.805794], [155.4030776, 49.7946667], [155.2211413, 49.6597394], [155.2224748, 49.5639244], [155.1887802, 49.4839687], [155.1448118, 49.2926282], [155.0843396, 49.1896259], [154.7988343, 48.9462293], [154.6886191, 48.8996983], [154.4830965, 48.7672449], [154.4382391, 48.716331], [154.2495468, 48.5859119], [154.1135187, 48.4309574], [154.0517916, 48.3833292], [153.9279598, 48.3356822], [153.8425228, 48.3276561], [153.7038063, 48.3506402], [153.5690857, 48.2845997], [153.596786, 48.0932708], [153.5912894, 48.0312883], [153.539334, 47.9349926], [153.3526248, 47.7188722], [153.3063302, 47.624019], [153.0488193, 47.3738844], [152.6752096, 47.1317925], [152.2125009, 46.7458325], [151.9621156, 46.6009582], [151.8174471, 46.5690971]]], [[[133.7958558, 46.221281], [133.8229965, 46.2235979], [133.8254782, 46.2069657], [133.8464964, 46.2030769], [133.8557639, 46.2426295], [133.9107072, 46.2634815], [133.8996193, 46.3012136], [133.9168304, 46.3310022], [133.8627146, 46.3367944], [133.8706582, 46.3612872], [133.9373514, 46.3794913], [133.9401648, 46.3995158], [133.8908482, 46.4468465], [133.8474893, 46.4443641], [133.8456689, 46.4811033], [133.8828714, 46.5212462], [133.9130956, 46.5961777], [133.9825387, 46.6328955], [134.0237939, 46.6962707], [134.0165842, 46.7172238], [134.0454233, 46.7805044], [134.0162408, 46.8108245], [134.0183008, 46.8322028], [134.0680826, 46.9328718], [134.055723, 46.9750543], [134.0965784, 47.0087764], [134.139837, 47.092521], [134.2177713, 47.1077119], [134.2197881, 47.1869171], [134.150077, 47.2529601], [134.1693339, 47.3183854], [134.2555409, 47.3667202], [134.2608592, 47.3953132], [134.3111775, 47.433286], [134.4861697, 47.4430053], [134.5545025, 47.4729743], [134.5724886, 47.5185095], [134.6804208, 47.5981297], [134.6752653, 47.625173], [134.7703977, 47.7151355], [134.7751959, 47.7399714], [134.7535749, 47.7689292], [134.6633455, 47.8248592], [134.6705574, 47.8775299], [134.6543437, 47.8963808], [134.6069916, 47.901472], [134.592794, 47.9476883], [134.5438852, 47.9849746], [134.5445014, 48.0243817], [134.667496, 48.1521969], [134.6760736, 48.2573316], [134.7169669, 48.2799651], [134.7743589, 48.3748135], [134.8696935, 48.4102228], [134.9201622, 48.4924846], [134.9957846, 48.5326809], [134.9769738, 48.6026189], [134.9506166, 48.6265573], [134.9240015, 48.6171563], [134.8723725, 48.6357683], [134.8597627, 48.6146189], [134.7357335, 48.5704192], [134.6592231, 48.6258315], [134.6507837, 48.6093448], [134.585144, 48.6090688], [134.5381489, 48.6495212], [134.4610167, 48.6808636], [134.4581891, 48.7158993], [134.4079078, 48.7462038], [134.3125605, 48.7227846], [134.286081, 48.735723], [134.2522424, 48.7089653], [134.2733048, 48.6764451], [134.2563244, 48.6679354], [134.2432404, 48.6830011], [134.21808, 48.6588432], [134.1280043, 48.6559338], [134.099413, 48.6328185], [134.0721795, 48.6485887], [134.0465141, 48.6354305], [133.9409897, 48.6542059], [133.9163649, 48.6429407], [133.9026911, 48.6612897], [133.8535767, 48.665552], [133.7590733, 48.7414519], [133.7014548, 48.7333324], [133.6589524, 48.746097], [133.5892766, 48.7295026], [133.463447, 48.8290972], [133.2813506, 48.8484584], [133.2850022, 48.871121], [133.2245257, 48.9619766], [133.2745865, 48.9872296], [133.2786123, 49.0303543], [133.2320746, 49.0806808], [133.158234, 49.1196807], [133.158784, 49.1529407], [133.0801086, 49.1713493], [133.0552267, 49.2146386], [132.9183332, 49.2320921], [132.9085321, 49.2555114], [132.8108626, 49.2363992], [132.8035209, 49.2720999], [132.7806152, 49.2872324], [132.7734127, 49.3348222], [132.7066456, 49.3210026], [132.7166497, 49.3082829], [132.6740479, 49.3020147], [132.6589311, 49.2825053], [132.5957745, 49.3114684], [132.4832422, 49.2661476], [132.467212, 49.2835086], [132.3849016, 49.2970652], [132.3675583, 49.3359529], [132.4005641, 49.3474126], [132.4075943, 49.3690868], [132.3846292, 49.4139062], [132.3072035, 49.4195205], [132.2744317, 49.436886], [132.2740861, 49.4629658], [132.2399906, 49.4892705], [132.2262601, 49.4740623], [132.1910837, 49.4734167], [132.1705522, 49.4891973], [132.109977, 49.4937869], [132.0654443, 49.4624737], [132.0747472, 49.4409513], [132.0632483, 49.4109365], [132.0949255, 49.3848104], [131.9943638, 49.3780238], [132.0227709, 49.3292195], [131.9740524, 49.3077843], [131.981419, 49.2876827], [132.0032217, 49.2845069], [131.9886284, 49.255894], [131.9378618, 49.278552], [131.8847524, 49.273162], [131.8008673, 49.3386234], [131.7444348, 49.308155], [131.6519785, 49.3060627], [131.601379, 49.2655386], [131.5143056, 49.2490403], [131.4732377, 49.2111336], [131.4579333, 49.2442822], [131.4271785, 49.2516346], [131.4372312, 49.2995522], [131.5278838, 49.4278651], [131.5039997, 49.458674], [131.5240865, 49.5723103], [131.5033055, 49.6221513], [131.4636205, 49.6343687], [131.4457226, 49.6702726], [131.377864, 49.6606191], [131.3524145, 49.6988008], [131.3699351, 49.7195076], [131.4467376, 49.7356418], [131.4913676, 49.7251098], [131.5148588, 49.7604828], [131.4786506, 49.7799478], [131.4787417, 49.7961308], [131.5205391, 49.9034651], [131.4791356, 49.9386317], [131.4480636, 49.9385781], [131.3874029, 49.9759013], [131.4240542, 49.9910276], [131.4300659, 50.0516596], [131.3754456, 50.1001533], [131.3956454, 50.1323441], [131.3888172, 50.1587838], [131.4583049, 50.1773249], [131.4128288, 50.2162398], [131.4215135, 50.2577085], [131.3441347, 50.275182], [131.3100478, 50.3228087], [131.3211372, 50.3634626], [131.3048387, 50.3764598], [131.2403459, 50.3484482], [131.1953643, 50.3590045], [131.1413324, 50.3962455], [131.1305502, 50.4318434], [131.0727218, 50.4193831], [131.0236516, 50.434764], [131.0059979, 50.3983617], [130.9636979, 50.375777], [130.930691, 50.3900135], [130.9132633, 50.4402171], [130.8759414, 50.4505225], [130.8934392, 50.4896831], [130.9332011, 50.4950976], [131.0264525, 50.5774564], [131.0009206, 50.5966979], [130.9845245, 50.6379689], [130.907408, 50.6695387], [130.8168082, 50.6505814], [130.791448, 50.6603738], [130.7639695, 50.6563908], [130.7439953, 50.6098127], [130.723473, 50.6059538], [130.6447516, 50.6620019], [130.6467339, 50.6798906], [130.7047874, 50.698033], [130.7030713, 50.7282195], [130.6727339, 50.7422225], [130.7756631, 50.8285068], [130.7873866, 50.8649136], [130.8453836, 50.8791209], [130.8318652, 50.9228204], [130.8011559, 50.9489379], [130.7569835, 50.9562738], [130.7654321, 50.9927909], [130.7954988, 51.0240915], [130.9270461, 51.0277656], [130.9489918, 51.0426901], [130.9715473, 51.1426683], [131.0013678, 51.1499545], [131.0002934, 51.1710317], [131.0268888, 51.1733101], [131.042859, 51.2391232], [131.1101024, 51.2671977], [131.1768852, 51.2577054], [131.199184, 51.2859024], [131.2244038, 51.2875673], [131.220332, 51.3191735], [131.2531086, 51.3632978], [131.3216445, 51.3843863], [131.3605953, 51.389378], [131.4347229, 51.3385432], [131.490443, 51.3467111], [131.4951689, 51.3917042], [131.4682495, 51.442722], [131.4676452, 51.4862215], [131.4330771, 51.5062781], [131.3901401, 51.5946682], [131.3865291, 51.6259726], [131.4341859, 51.6681221], [131.4317296, 51.6883392], [131.6043229, 51.6659604], [131.6221001, 51.6838873], [131.7798768, 51.7004241], [131.8584914, 51.7582656], [131.9562903, 51.7453142], [132.0011542, 51.779271], [132.0657055, 51.8005089], [132.0963614, 51.7703742], [132.1179264, 51.7785494], [132.1300377, 51.8107707], [132.2188754, 51.8397837], [132.2457077, 51.8349404], [132.264218, 51.8000982], [132.295653, 51.807431], [132.3426984, 51.8478091], [132.3856613, 51.846817], [132.4505997, 51.8856843], [132.4190278, 51.9054679], [132.4174452, 51.9441279], [132.3893806, 51.9715354], [132.4244836, 51.9808711], [132.482025, 51.9761474], [132.5032285, 51.9540387], [132.5258275, 51.9622287], [132.5401042, 52.0502494], [132.5644638, 52.0580226], [132.5728469, 52.0807946], [132.6213798, 52.0790735], [132.6458825, 52.1142553], [132.7024849, 52.1278403], [132.7593271, 52.1220527], [132.8182074, 52.1628216], [132.8181342, 52.1834119], [132.9136649, 52.1524288], [133.0578335, 52.1750413], [133.0926961, 52.1531264], [133.1446403, 52.1790404], [133.1713513, 52.1624465], [133.2076035, 52.1897213], [133.2322006, 52.1765214], [133.3259105, 52.1935287], [133.3266946, 52.2085564], [133.4204497, 52.233701], [133.4314211, 52.2581655], [133.4008653, 52.3001367], [133.3376641, 52.32188], [133.3069836, 52.3611106], [133.3138842, 52.4000074], [133.2371728, 52.4501445], [133.3007537, 52.5291831], [133.2453181, 52.5578693], [133.2514393, 52.5837223], [133.2292838, 52.616671], [133.2600299, 52.6810919], [133.5011031, 52.6417756], [133.509344, 52.6211079], [133.5886369, 52.6144262], [133.7084842, 52.5586459], [133.8191426, 52.566742], [133.8697049, 52.514491], [133.9410083, 52.5125997], [133.9522936, 52.5296269], [133.9985101, 52.5403582], [134.0975204, 52.4816003], [134.1671888, 52.5135733], [134.2924114, 52.4611718], [134.4353318, 52.4677698], [134.4931439, 52.4576489], [134.5221525, 52.4247385], [134.5935661, 52.4233957], [134.643588, 52.4588203], [134.6357457, 52.4987905], [134.5991582, 52.5010689], [134.6132573, 52.530467], [134.5978386, 52.5389398], [134.6210692, 52.5510536], [134.6218398, 52.5738211], [134.6560319, 52.5835601], [134.6727907, 52.627651], [134.7417462, 52.6259259], [134.752147, 52.6796783], [134.7333077, 52.6981001], [134.7405375, 52.7113252], [134.6531664, 52.7164895], [134.6385258, 52.7473168], [134.6645293, 52.7699503], [134.6351427, 52.8030303], [134.6016559, 52.8077168], [134.6096697, 52.8271642], [134.5938816, 52.8572054], [134.6314085, 52.8689418], [134.6408024, 52.8904654], [134.5945986, 52.9008741], [134.6945151, 52.9769705], [134.7112018, 53.007921], [134.734988, 53.0115956], [134.7315726, 53.0319462], [134.7717703, 53.0702486], [134.827574, 53.0692139], [134.8627905, 53.099726], [134.8139615, 53.1578053], [134.8476034, 53.173481], [134.8362675, 53.1964882], [134.8923108, 53.2139074], [134.9209128, 53.2607202], [134.8681897, 53.2738164], [134.8686898, 53.317917], [134.7833929, 53.3389484], [134.7941402, 53.359445], [134.7814777, 53.3783417], [134.8003024, 53.4010057], [134.8769746, 53.3847979], [134.9150952, 53.401786], [134.8902709, 53.4354717], [134.8081008, 53.4536813], [134.8223581, 53.4797811], [134.8041523, 53.4904353], [134.7297923, 53.4913558], [134.7230905, 53.5289524], [134.6208706, 53.5688865], [134.6232926, 53.590088], [134.5654458, 53.6196533], [134.4563066, 53.6080365], [134.4455066, 53.5584606], [134.406024, 53.5788912], [134.3196845, 53.5525901], [134.3021764, 53.5341411], [134.2851282, 53.5480543], [134.2593076, 53.5421712], [134.1952848, 53.4822346], [134.1379707, 53.496803], [134.1123189, 53.4885602], [134.1007287, 53.4594128], [134.0550173, 53.4608249], [134.0425178, 53.4479614], [133.9237724, 53.4477362], [133.8681071, 53.474426], [133.8173183, 53.4629189], [133.7965908, 53.4710159], [133.7943848, 53.4912216], [133.7162657, 53.4671976], [133.5990117, 53.5512869], [133.5571036, 53.5472409], [133.4918937, 53.5071038], [133.4129297, 53.515704], [133.3496105, 53.469769], [133.1983652, 53.4318699], [133.1654585, 53.4102344], [133.1219954, 53.3387955], [133.1441671, 53.3326709], [133.139159, 53.3076753], [133.0279879, 53.3065489], [133.022199, 53.2935949], [132.967227, 53.2836126], [132.9538234, 53.2975648], [132.8962664, 53.3002352], [132.8798591, 53.2934527], [132.8980124, 53.2529367], [132.8612009, 53.2352757], [132.7705466, 53.2497242], [132.7329259, 53.2300866], [132.6542603, 53.2424037], [132.5140985, 53.2154501], [132.300443, 53.23916], [132.2796759, 53.2554383], [132.2489833, 53.22612], [132.1623258, 53.2217909], [132.1056028, 53.2405343], [132.0625114, 53.2202958], [132.0611005, 53.2005241], [132.0416375, 53.1956695], [132.0380716, 53.1578697], [132.0131132, 53.1392318], [131.9788486, 53.1394923], [131.9620977, 53.1605509], [131.8947503, 53.1377614], [131.8786415, 53.1571862], [131.8346693, 53.1611563], [131.8265093, 53.1740197], [131.8546878, 53.2315784], [131.8176309, 53.2378735], [131.8064259, 53.2575283], [131.7222683, 53.2333703], [131.4415488, 53.2213154], [131.4467639, 53.2380397], [131.5069179, 53.2681918], [131.5334407, 53.3336604], [131.4955487, 53.3993456], [131.5110466, 53.4326827], [131.4512727, 53.5101096], [131.4762014, 53.5286862], [131.4660181, 53.5389476], [131.4804708, 53.5675521], [131.4552219, 53.5766373], [131.4914096, 53.6023537], [131.4414697, 53.6396612], [131.4182646, 53.6833799], [131.4441388, 53.739173], [131.4145608, 53.7569003], [131.3165044, 53.7803641], [131.3125028, 53.7934054], [131.2522668, 53.7864055], [131.1075582, 53.8223384], [131.0841355, 53.8100817], [130.9927669, 53.8180092], [130.906202, 53.7749975], [130.8485043, 53.7983783], [130.8518485, 53.8491673], [130.7663907, 53.8448669], [130.719581, 53.8582718], [130.7111752, 53.8888954], [130.6739757, 53.9025608], [130.5877794, 53.8784617], [130.5170427, 53.9091658], [130.4415988, 53.8881555], [130.3910223, 53.9199677], [130.4307724, 53.9659966], [130.4962743, 53.9873168], [130.511178, 54.1224156], [130.5706009, 54.1680906], [130.6345319, 54.1858497], [130.6282317, 54.1983616], [130.6720548, 54.2364085], [130.6686074, 54.2566122], [130.7235316, 54.2684442], [130.7162155, 54.2854939], [130.7593968, 54.3019952], [130.8149519, 54.2845829], [130.8710005, 54.3216606], [130.9391629, 54.339254], [130.9729213, 54.3259822], [130.9737208, 54.3044448], [131.0370367, 54.291559], [131.0838959, 54.3298239], [131.1179499, 54.3336827], [131.1068222, 54.3544179], [131.1341566, 54.3674654], [131.1567526, 54.4286848], [131.17511, 54.4391226], [131.1670204, 54.4706858], [131.2316345, 54.5586834], [131.1782753, 54.5949387], [131.1694721, 54.635017], [131.2866467, 54.6588115], [131.3217986, 54.6990023], [131.3948903, 54.73728], [131.5523547, 54.7434064], [131.5593647, 54.7730499], [131.6184095, 54.7937909], [131.6345124, 54.7723916], [131.6715376, 54.7754465], [131.6756424, 54.8002126], [131.7365329, 54.8132446], [131.8101065, 54.8614553], [131.8098488, 54.8844155], [131.8758174, 54.8765074], [131.8867451, 54.8923044], [132.0112728, 54.9333453], [132.0116891, 54.9596208], [132.061187, 54.9703968], [132.0615691, 54.9876337], [131.9730665, 55.0159378], [132.0862813, 55.0615852], [132.294485, 55.062012], [132.4351352, 55.0913688], [132.4378621, 55.1110383], [132.3813051, 55.1477138], [132.4011969, 55.1642296], [132.3670201, 55.1839736], [132.377434, 55.2001601], [132.3371762, 55.2223234], [132.3458324, 55.2374306], [132.3722031, 55.2477069], [132.6114887, 55.235266], [132.6506884, 55.2801962], [132.6926484, 55.3011197], [132.6776659, 55.3554627], [132.7736198, 55.3478347], [132.8887275, 55.3963907], [132.9178568, 55.3844544], [132.9720593, 55.4018583], [132.9653406, 55.4203396], [132.9357554, 55.4299221], [132.7632575, 55.4562953], [132.7084627, 55.511444], [132.6611804, 55.521493], [132.6393721, 55.5566418], [132.6867407, 55.5828231], [132.658787, 55.607394], [132.6615065, 55.6264057], [132.5708976, 55.6695435], [132.5581523, 55.709942], [132.5014381, 55.7106818], [132.4410574, 55.7427815], [132.2580662, 55.7405795], [132.2209822, 55.7076015], [132.1741185, 55.7050764], [132.1481934, 55.6813032], [132.0832941, 55.7018621], [131.9471451, 55.7071348], [131.9343304, 55.6907328], [131.941094, 55.6672611], [131.9261376, 55.6585804], [131.8971559, 55.6691989], [131.8384387, 55.6501764], [131.804212, 55.6538776], [131.773743, 55.694409], [131.6361823, 55.7089168], [131.5643492, 55.6556792], [131.4844345, 55.6972543], [131.4040004, 55.6577141], [131.3352452, 55.6510162], [131.2157164, 55.6941361], [131.1474584, 55.6490377], [131.0593308, 55.6565533], [130.952768, 55.7121765], [130.9594857, 55.7307155], [130.9432033, 55.7534978], [130.964553, 55.8000077], [130.9578153, 55.8160859], [130.8919434, 55.8425744], [130.8863412, 55.9015199], [130.8602198, 55.9150994], [130.9355354, 55.9635961], [130.8966929, 56.0186421], [130.9715212, 56.0802176], [130.9717935, 56.1375789], [130.9912868, 56.1675847], [131.1113715, 56.2417666], [131.139749, 56.2983115], [131.0973772, 56.3840436], [131.1036288, 56.4099364], [131.1675709, 56.4355443], [131.1880869, 56.4772173], [131.2254761, 56.4957283], [131.2221156, 56.5208445], [131.3503841, 56.5162374], [131.3725409, 56.5016618], [131.383884, 56.4604804], [131.4508721, 56.4643782], [131.4082785, 56.5092434], [131.4920974, 56.5658779], [131.5642341, 56.5519995], [131.5664224, 56.5325953], [131.6350583, 56.5239709], [131.6177752, 56.4769766], [131.6444099, 56.4582949], [131.6625402, 56.4593182], [131.6657506, 56.478928], [131.7250082, 56.4707152], [131.7516855, 56.4922448], [131.6463676, 56.5369167], [131.699617, 56.5655214], [131.7073403, 56.6114181], [131.6719662, 56.647742], [131.7190467, 56.6587838], [131.6812888, 56.672586], [131.8316812, 56.7427458], [131.7953247, 56.8062126], [131.8116437, 56.819534], [131.769481, 56.8419959], [131.7770259, 56.8577104], [131.734877, 56.85935], [131.7079919, 56.8959863], [131.6797193, 56.8925618], [131.6608807, 56.9076389], [131.6618926, 56.9303812], [131.605968, 56.9557524], [131.6087171, 56.9781858], [131.5870889, 56.9777161], [131.5342698, 57.0263559], [131.4989, 57.0302472], [131.5076576, 57.0496404], [131.4732708, 57.0601532], [131.4690621, 57.0837622], [131.4941915, 57.1114069], [131.3320373, 57.1573134], [131.3334821, 57.1869127], [131.3132567, 57.1920289], [131.2488333, 57.1932109], [131.2326511, 57.1638811], [131.192289, 57.1678357], [131.2023333, 57.2032898], [131.1229505, 57.2517131], [131.1419931, 57.2700237], [131.2007081, 57.2595626], [131.2323272, 57.2766329], [131.2792325, 57.3361947], [131.3254634, 57.2851615], [131.4849528, 57.2652261], [131.5088213, 57.2681517], [131.5101929, 57.2942357], [131.5573657, 57.3159928], [131.6087507, 57.3093624], [131.6272232, 57.3420083], [131.6056737, 57.3562346], [131.6062839, 57.4282004], [131.6594881, 57.4757645], [131.7807729, 57.5386161], [131.7229101, 57.5685796], [131.8491163, 57.622865], [131.9421621, 57.6167091], [131.9906645, 57.6651969], [132.068427, 57.6817197], [132.0471516, 57.7113062], [132.0509713, 57.7312513], [131.9582361, 57.789994], [131.8793323, 57.8154827], [131.8777579, 57.8478455], [131.7601449, 57.8711148], [131.7477553, 57.8884561], [131.7964663, 57.9018239], [131.7992127, 57.9324525], [131.70772, 57.9502094], [131.6954413, 57.97183], [131.5847479, 58.0194022], [131.5806773, 58.0385575], [131.632881, 58.0461337], [131.6440706, 58.0798442], [131.5282856, 58.1105121], [131.4952038, 58.1704938], [131.4601535, 58.1664927], [131.4442736, 58.1824028], [131.4533009, 58.1968656], [131.5567261, 58.2115319], [131.5931386, 58.1983586], [131.6681542, 58.2090206], [131.7165026, 58.1977887], [131.7697737, 58.1518241], [131.8287236, 58.1667404], [131.8935393, 58.1175657], [131.9799864, 58.0797544], [131.9848232, 58.0516905], [132.0662743, 58.049308], [132.1372393, 58.0802304], [132.1047847, 58.1220594], [131.9984737, 58.1503933], [132.0051073, 58.1784895], [132.0344143, 58.1860106], [132.0144571, 58.2011796], [132.1114361, 58.2784304], [132.1984008, 58.2546284], [132.2057941, 58.3068018], [132.2282881, 58.3310678], [132.2126426, 58.3628686], [132.2263051, 58.3862284], [132.1795206, 58.4150458], [132.1754766, 58.4895554], [132.1399293, 58.5148625], [132.3069584, 58.5351191], [132.3190439, 58.5167682], [132.4309175, 58.5108544], [132.4276582, 58.5383076], [132.3877269, 58.5448713], [132.386507, 58.5612508], [132.5465112, 58.6596893], [132.5046947, 58.6766555], [132.5448619, 58.7302028], [132.5274134, 58.7522154], [132.5366699, 58.7813949], [132.4885115, 58.7952645], [132.534671, 58.8208782], [132.5254801, 58.8340742], [132.5549925, 58.8463443], [132.5587177, 58.871613], [132.5880761, 58.8916572], [132.6333669, 58.89089], [132.6681231, 58.9101226], [132.7031162, 58.8865624], [132.7772449, 58.8870267], [132.7890741, 58.9282923], [132.8438731, 58.976578], [132.8449082, 58.9931743], [132.7650017, 59.0073658], [132.7562285, 59.0253386], [132.8197544, 59.04324], [132.8369901, 59.0680704], [132.8168814, 59.0921563], [132.8296356, 59.1187539], [132.9294526, 59.1039845], [133.0516383, 59.1945799], [133.1208094, 59.2151463], [133.1590376, 59.2046417], [133.1709727, 59.2414102], [133.2719168, 59.2266888], [133.3370306, 59.2535604], [133.3689003, 59.2493889], [133.376802, 59.2734903], [133.4858989, 59.3103915], [133.5733782, 59.2935652], [133.5724884, 59.2510181], [133.6294719, 59.2329166], [133.7475407, 59.228344], [133.8565758, 59.2572096], [134.077362, 59.2560169], [134.1837026, 59.2185301], [134.365691, 59.2022581], [134.388919, 59.1726677], [134.4774076, 59.1444805], [134.5625092, 59.2030861], [134.6548592, 59.198671], [134.7225568, 59.2186138], [134.7331114, 59.1578082], [134.80816, 59.140001], [134.8425094, 59.1366018], [134.9323735, 59.1698258], [135.0702931, 59.1465264], [135.1022505, 59.1229818], [135.1932512, 59.1143835], [135.203196, 59.1356344], [135.2505301, 59.1594908], [135.2382982, 59.1802451], [135.3023845, 59.2027439], [135.2609297, 59.2339603], [135.3624865, 59.3113545], [135.3491395, 59.335389], [135.4204426, 59.3661857], [135.4378295, 59.3969575], [135.5080421, 59.439284], [135.594593, 59.4667776], [135.613066, 59.4878388], [135.7373197, 59.5032947], [135.7691625, 59.5213475], [135.8905564, 59.514043], [135.8895169, 59.496764], [135.9475674, 59.4588135], [135.986857, 59.4735516], [136.0597427, 59.4472443], [136.0898828, 59.4195513], [136.2398621, 59.4120941], [136.2619382, 59.4259619], [136.3173511, 59.4238105], [136.3468253, 59.3939248], [136.399989, 59.3838004], [136.4448406, 59.3924603], [136.55692, 59.368504], [136.6122593, 59.3793574], [136.6540636, 59.3507321], [136.7685738, 59.3378807], [136.8211743, 59.388431], [137.0054082, 59.4351637], [137.0260736, 59.4254894], [137.1171163, 59.4511395], [137.1786145, 59.4402049], [137.2187491, 59.4794003], [137.2983429, 59.4956134], [137.3597719, 59.5418789], [137.4484634, 59.538466], [137.5014057, 59.558085], [137.449793, 59.6131379], [137.4574789, 59.638071], [137.4911844, 59.6808377], [137.5556771, 59.7036645], [137.5577969, 59.7298894], [137.6319783, 59.7513027], [137.8185258, 59.758248], [137.8987693, 59.7408108], [137.9203663, 59.7616098], [137.9743405, 59.7723452], [137.9681939, 59.7920385], [137.9880643, 59.8124503], [138.0361836, 59.8218806], [138.0469146, 59.8036822], [138.0340085, 59.782405], [138.0804769, 59.7467897], [138.0287209, 59.6993739], [138.0212035, 59.6707794], [138.0474666, 59.6455639], [138.1690801, 59.6352486], [138.2175955, 59.6539794], [138.210209, 59.6835848], [138.2720962, 59.7057733], [138.2671095, 59.7221854], [138.2200165, 59.7306016], [138.2323342, 59.748429], [138.2197447, 59.8146007], [138.1757035, 59.8267875], [138.1987553, 59.9156287], [138.2623932, 59.9307714], [138.2687208, 59.9457131], [138.2332833, 59.9845111], [138.2360421, 60.036286], [138.2624216, 60.0688055], [138.2156688, 60.1065076], [138.2394753, 60.1730354], [138.1836117, 60.1961449], [138.1875494, 60.2207174], [138.2186395, 60.2562838], [138.2132163, 60.2778135], [138.3067885, 60.3130819], [138.3224407, 60.3338527], [138.3084352, 60.3704267], [138.3356269, 60.4015489], [138.3041414, 60.4121425], [138.3167529, 60.4262136], [138.2680572, 60.4824594], [138.3165382, 60.4913072], [138.3318479, 60.5125027], [138.3599698, 60.5627984], [138.3285175, 60.5774956], [138.3424135, 60.5857081], [138.3319968, 60.6042168], [138.3968392, 60.6206545], [138.4098335, 60.6937416], [138.3975259, 60.7230031], [138.3147291, 60.7367873], [138.3053032, 60.7761312], [138.2718056, 60.7932981], [138.2701963, 60.8275735], [138.2341902, 60.8266627], [138.2069218, 60.8570347], [138.2535636, 60.9082175], [138.2491414, 60.9271064], [138.2690917, 60.9549151], [138.3439805, 60.9778023], [138.359881, 61.0052694], [138.347143, 61.0226453], [138.3605304, 61.0449587], [138.3246547, 61.0617177], [138.3364595, 61.1074316], [138.3971307, 61.0993807], [138.5558488, 61.1512322], [138.6914071, 61.2174516], [138.651092, 61.2269866], [138.6577321, 61.2491005], [138.6374399, 61.2635576], [138.6491378, 61.2973067], [138.7349266, 61.3368837], [138.7704953, 61.3136651], [138.9020478, 61.3323001], [138.9723803, 61.3160483], [139.0604152, 61.3633392], [139.0760059, 61.3936147], [139.0553512, 61.4312779], [139.2803306, 61.4276518], [139.3767383, 61.4608025], [139.3955253, 61.4714973], [139.3893109, 61.4865075], [139.5537578, 61.4736093], [139.6485899, 61.5622508], [139.6922933, 61.6622423], [139.732754, 61.6592403], [139.7317385, 61.6346461], [139.7757557, 61.6395387], [139.7808971, 61.6942213], [139.8021062, 61.7169782], [139.8520997, 61.7350857], [139.8820644, 61.776085], [139.9375587, 61.8040244], [139.9800783, 61.861453], [139.9525456, 61.9365287], [139.9863641, 61.9749945], [140.0302268, 61.9871434], [140.1163345, 61.9687937], [140.1752971, 62.0151443], [140.2759878, 62.0378078], [140.2656952, 62.0639727], [140.2413248, 62.068294], [140.256402, 62.0908719], [140.3138536, 62.1093236], [140.3333343, 62.1874372], [140.2896732, 62.2341108], [140.2917074, 62.2681966], [140.3185355, 62.2848464], [140.3068602, 62.2932697], [140.3120814, 62.3418792], [140.3377049, 62.3538383], [140.3413796, 62.3737933], [140.3914666, 62.3783017], [140.4120524, 62.4134365], [140.6282718, 62.4041907], [140.6942709, 62.4310123], [140.6937381, 62.4481702], [140.7308222, 62.4671379], [140.7054464, 62.4831493], [140.7908613, 62.5264967], [140.8345712, 62.5317458], [140.8794184, 62.5169815], [140.8891145, 62.4965326], [140.9566098, 62.5008183], [141.0014226, 62.4763245], [141.0613248, 62.4898341], [141.0784198, 62.4650835], [141.07591, 62.4332069], [141.1395247, 62.3994342], [141.2797873, 62.4009035], [141.3143786, 62.4163143], [141.3222768, 62.3874752], [141.3633782, 62.3453772], [141.3911333, 62.3408823], [141.391841, 62.3236141], [141.4209033, 62.3187541], [141.4210166, 62.3025412], [141.4565877, 62.2852145], [141.4928694, 62.2867346], [141.5268991, 62.2555152], [141.5535597, 62.1637873], [141.5728294, 62.1492823], [141.6075062, 62.1517373], [141.6479943, 62.1157584], [141.7082218, 62.1033017], [141.7293739, 62.0783075], [141.8549343, 62.0826621], [141.833325, 62.017922], [141.957493, 62.039296], [142.00171, 62.0201763], [142.1453196, 62.0755105], [142.1814676, 62.0446956], [142.2669647, 62.017924], [142.2554506, 62.0056272], [142.2806031, 61.9894046], [142.2635741, 61.9722939], [142.4170904, 61.9437943], [142.4244745, 61.9206053], [142.3978234, 61.8984236], [142.452513, 61.876426], [142.5691676, 61.9278407], [142.6737815, 61.9470236], [142.6861798, 61.9654854], [142.8491744, 61.9465764], [142.8963995, 61.9054184], [142.9267012, 61.9138745], [142.9541337, 61.8967609], [143.0064718, 61.9148424], [143.0002318, 61.9325214], [143.023094, 61.9456918], [143.0143144, 61.9734313], [143.0521537, 61.9758464], [143.1534175, 62.059373], [143.1150755, 62.0715575], [143.1359087, 62.1040045], [143.2296934, 62.1174713], [143.2763423, 62.0908982], [143.2854787, 62.049911], [143.3349669, 62.0337126], [143.4003582, 62.0278108], [143.5081986, 62.0535436], [143.6091263, 62.0360109], [143.6313433, 61.9658319], [143.6027751, 61.9532893], [143.6395526, 61.9032847], [143.6229801, 61.8837154], [143.6423552, 61.8578705], [143.6961858, 61.8678384], [143.7120152, 61.8873283], [143.6989268, 61.9039998], [143.7788559, 61.9170576], [143.7770932, 61.9548264], [143.8560699, 61.9627072], [143.8956133, 61.9961899], [143.9357723, 61.9733066], [143.9187757, 61.9595892], [143.9591026, 61.9297499], [143.9431031, 61.9154926], [143.9985367, 61.8915831], [143.9802554, 61.8768829], [143.9839949, 61.8599557], [143.9512741, 61.8395073], [143.9594314, 61.8121874], [143.9369135, 61.7961491], [143.944683, 61.7549859], [144.1041174, 61.7431009], [144.1354863, 61.7560678], [144.1879313, 61.7470936], [144.1888784, 61.7326163], [144.2524242, 61.7405084], [144.2466099, 61.7667428], [144.372251, 61.791467], [144.3711483, 61.8067983], [144.4119543, 61.8332999], [144.4540552, 61.8209308], [144.5494728, 61.8480236], [144.5262575, 61.8757993], [144.5840043, 61.904548], [144.6015813, 61.9396406], [144.5829793, 61.9732057], [144.6689877, 62.0016461], [144.6721311, 62.019022], [144.697123, 62.019886], [144.7265259, 62.046293], [144.7720726, 62.0364071], [144.9562461, 62.0668508], [144.9878214, 62.0519193], [144.9925255, 62.0264609], [145.0524805, 61.9968427], [145.144669, 62.0021541], [145.148477, 61.9805847], [145.2108034, 61.9641447], [145.29382, 62.0027353], [145.3987076, 61.9762437], [145.4619182, 61.9882649], [145.4498848, 61.9519816], [145.5108577, 61.9652304], [145.5385883, 61.9498582], [145.6527308, 61.9938421], [145.6430437, 62.0076398], [145.6678614, 62.0461898], [145.7798071, 62.0290942], [145.8157417, 62.0065852], [145.9654182, 62.0044941], [146.0178058, 61.9454513], [146.0871827, 61.9576696], [146.1560133, 61.9246949], [146.1527444, 61.9037856], [146.2382141, 61.8990872], [146.2260351, 61.8714228], [146.2524903, 61.8722517], [146.2534618, 61.851854], [146.3080209, 61.857929], [146.3476967, 61.8414452], [146.3571003, 61.8138298], [146.3868519, 61.8067485], [146.3726689, 61.7855598], [146.3891282, 61.743088], [146.4279518, 61.7384656], [146.4790158, 61.6891272], [146.5248043, 61.657271], [146.572679, 61.6502758], [146.6038547, 61.6151826], [146.5878163, 61.6127449], [146.5933141, 61.5484829], [146.5809093, 61.5317226], [146.7397525, 61.4686054], [146.7066287, 61.4168109], [146.7149022, 61.3963319], [146.7440256, 61.3980397], [146.7435086, 61.3762519], [146.7128026, 61.34519], [146.6998899, 61.302982], [146.7574825, 61.2098571], [146.7288654, 61.1645045], [146.7533607, 61.0945101], [146.6893047, 61.0936084], [146.6614906, 61.0611419], [146.7544738, 61.0036524], [146.7217911, 60.9929064], [146.705414, 60.9493641], [146.5673139, 60.9537793], [146.5032747, 60.9409814], [146.52209, 60.8679428], [146.4987105, 60.8537601], [146.5345972, 60.842448], [146.480923, 60.8093349], [146.5006847, 60.7895595], [146.4503511, 60.7567712], [146.4693135, 60.7366638], [146.4546251, 60.7293302], [146.4599859, 60.7048625], [146.4316124, 60.6884517], [146.4440248, 60.671125], [146.3361034, 60.652664], [146.2794422, 60.6693092], [146.2812776, 60.6854943], [146.1998864, 60.7013379], [146.1605651, 60.7414127], [146.0852574, 60.7365798], [145.9824248, 60.6583755], [145.9203074, 60.6558049], [145.9105957, 60.6431246], [145.9309393, 60.6191036], [145.8134578, 60.6029135], [145.7923759, 60.6141772], [145.7136085, 60.5949776], [145.7148544, 60.5787641], [145.6452819, 60.5569809], [145.6550898, 60.5288346], [145.5663494, 60.5157847], [145.5288512, 60.4948295], [145.5300511, 60.422181], [145.6373271, 60.4146454], [145.6573226, 60.3881403], [145.6598938, 60.3618612], [145.6131662, 60.3370136], [145.574393, 60.3355584], [145.5619337, 60.3116413], [145.6003691, 60.3107562], [145.6369639, 60.2648458], [145.7705861, 60.2041232], [145.7945949, 60.211519], [145.8574111, 60.1702718], [145.9154093, 60.1809725], [145.9201858, 60.1976255], [146.2173136, 60.208566], [146.2657478, 60.2356605], [146.3723866, 60.2505872], [146.4082653, 60.2415352], [146.4105213, 60.2172742], [146.4846312, 60.1927645], [146.511635, 60.1603681], [146.5004422, 60.1233499], [146.5336771, 60.1249838], [146.5374689, 60.0972243], [146.5795964, 60.0929078], [146.6085789, 60.1156463], [146.6891123, 60.0872943], [146.6722887, 60.0383495], [146.6905304, 60.0276672], [146.6837278, 60.0047617], [146.7057475, 59.988169], [146.7021387, 59.9715536], [146.75243, 59.9601318], [146.8007701, 59.9050548], [146.9422268, 59.9518586], [147.0019346, 59.9532855], [147.0614956, 59.9293583], [147.0281125, 59.9149961], [147.0435928, 59.903588], [147.1182617, 59.8861985], [147.1566699, 59.8106664], [147.1464676, 59.7966606], [147.2167891, 59.7353255], [147.1292266, 59.6970111], [147.1675676, 59.6259076], [147.1439105, 59.6064887], [147.1529818, 59.5638538], [147.137779, 59.5503288], [147.1370709, 59.5126663], [147.1474993, 59.5018923], [147.0936835, 59.4493836], [147.1123195, 59.4360582], [147.111032, 59.4091841], [146.9377659, 59.3874497], [146.9456712, 59.3223506], [146.9124744, 59.1465337], [146.4650148, 59.0015703], [146.1271716, 58.9458403], [146.0117203, 58.9411779], [145.7673263, 58.9776437], [145.5783795, 59.0888187], [145.2629762, 59.185], [145.0203191, 59.1688429], [144.3820704, 59.1704313], [143.9423471, 59.2038717], [143.5207771, 59.1208635], [143.1386274, 59.1287578], [142.638925, 59.0231406], [142.3331838, 58.8751036], [142.0950284, 58.6533694], [141.9851614, 58.5639103], [141.847735, 58.479528], [141.5448598, 58.3477384], [141.1927644, 58.2445543], [141.0612505, 58.1640555], [140.9017831, 57.9270335], [140.8537202, 57.7931459], [140.7932373, 57.7274141], [140.5475847, 57.5947326], [140.2021071, 57.5008799], [140.1716382, 57.4468675], [140.061524, 57.3487015], [139.6470621, 57.1452043], [139.5064132, 57.1054319], [139.303148, 57.0051964], [138.8613347, 56.6593627], [138.6416495, 56.5735368], [138.6280425, 56.5607061], [138.5992078, 56.4018513], [138.5060057, 56.2962643], [138.3998833, 56.2477784], [138.2471118, 56.2107443], [138.1767387, 56.1712026], [137.9803206, 55.9970047], [137.710777, 55.8557756], [137.6551178, 55.811081], [137.5479796, 55.7662906], [137.4241005, 55.7388234], [137.2835457, 55.6369214], [136.9614469, 55.4813231], [136.7429291, 55.4181013], [136.3747779, 55.144749], [136.0499222, 55.0043032], [136.4108164, 55.0160248], [136.6460352, 55.0541398], [136.7298347, 55.1524473], [136.7229442, 55.1038033], [136.9052415, 55.1258416], [137.1873431, 55.1975074], [137.2927453, 55.3121675], [137.4079977, 55.3615605], [137.5485807, 55.3904155], [137.7252868, 55.3888663], [138.0348009, 55.332117], [138.5539584, 55.2746913], [138.6785017, 55.2250307], [138.7343248, 55.1802717], [138.775985, 55.1009791], [138.7627103, 55.0128803], [138.5896971, 54.6913118], [138.7861325, 54.5020668], [138.8903502, 54.4856177], [139.0764378, 54.4192885], [139.248662, 54.3825126], [139.3453887, 54.3931395], [139.5316122, 54.5022387], [139.6776243, 54.5487114], [139.8795074, 54.5494987], [139.999421, 54.5193797], [140.1113315, 54.4471943], [140.1873703, 54.3078074], [140.4531717, 54.1868491], [140.6165432, 54.0608499], [140.763171, 53.8500055], [140.9119851, 53.7354724], [141.3890801, 53.5939679], [141.6235492, 53.599386], [141.7589442, 53.62538], [142.0373855, 53.7099884], [142.3071793, 53.8434669], [142.2961991, 53.9160466], [142.1758979, 54.0029544], [142.0296178, 54.1529066], [141.9665203, 54.1979442], [141.9179193, 54.2819202], [141.9278975, 54.359389], [141.9540515, 54.3993704], [141.99501, 54.4361234], [142.0998585, 54.4868892], [142.5673303, 54.6120328], [142.6983543, 54.6259808], [142.8250698, 54.6135282], [143.0008366, 54.5400764], [143.1480962, 54.3513881], [143.2815451, 54.2244587], [143.3181029, 54.1615796], [143.33617, 54.0740091], [143.240215, 53.8567343], [143.5318042, 53.3618357], [143.5907933, 53.1974834], [143.6634652, 52.8595408], [143.6345054, 52.5200237], [143.5929619, 52.3891973], [143.4677015, 52.2053858], [143.4791033, 52.0683145], [143.5449177, 51.9256004], [143.6489099, 51.7641345], [143.7547524, 51.5222184], [143.7939642, 51.3655496], [143.9794275, 50.8434157], [144.0172696, 50.5863366], [144.0638431, 50.4416337], [144.1306984, 50.3008295], [144.2808745, 50.1005426], [144.3148138, 49.9749892], [144.4298885, 49.7783187], [144.4334717, 49.6876067], [144.525635, 49.5758599], [144.5466306, 49.5072402], [144.5520835, 49.3992062], [144.5869881, 49.2916574], [144.6589948, 49.1649482], [144.8960332, 49.0117508], [144.9589824, 48.9545396], [144.9881167, 48.9008512], [145.0501452, 48.6525345], [145.0305732, 48.5736353], [144.9349669, 48.486663], [144.886633, 48.399481], [144.830364, 48.353409], [144.710124, 48.308758], [144.580204, 48.303625], [144.503797, 48.318754], [144.394266, 48.37435], [144.342933, 48.434761], [144.32839, 48.5285], [144.3728695, 48.6117079], [144.3391248, 48.7356423], [144.289473, 48.7940468], [144.1158241, 48.8982704], [143.8947291, 49.0767727], [143.5241122, 49.1152798], [143.379131, 49.0938937], [143.3105615, 49.0667556], [143.2743828, 48.8523023], [143.0930998, 48.6025634], [142.8691729, 48.0914096], [142.8260908, 47.9292176], [142.8234313, 47.7960415], [142.8728774, 47.688948], [142.929041, 47.6191917], [143.1500098, 47.4949889], [143.2697027, 47.3552977], [143.3099912, 47.2769426], [143.3351091, 47.1082968], [143.6568984, 46.9874013], [143.7535147, 46.8899443], [143.79941, 46.7357278], [143.8258747, 46.5456569], [143.8972013, 46.4270184], [143.9035811, 46.3503733], [143.8294078, 46.2125991], [143.7724492, 46.1436329], [143.7435522, 46.0471909], [143.6659919, 45.9232111], [143.573274, 45.8535997], [143.445173, 45.8216363], [143.3364201, 45.8283244], [143.2390728, 45.8629301], [143.1654384, 45.9207996], [143.1386359, 45.9617022], [143.1099836, 46.0887891], [143.1177928, 46.22435], [143.0643016, 46.3240195], [142.9338046, 46.4073699], [142.8472678, 46.408042], [142.7683721, 46.398919], [142.5880213, 46.3358759], [142.5403371, 46.2424064], [142.5203396, 46.1265564], [142.450575, 45.961654], [142.34959, 45.8222673], [142.2917675, 45.6560784], [141.7164269, 45.7422549], [141.7628407, 45.8529555], [141.6771987, 45.9399083], [141.6381574, 46.0163579], [141.6008642, 46.2766209], [141.5209197, 46.527875], [141.5207147, 46.6181824], [141.7168646, 46.9977159], [141.7579266, 47.1308708], [141.6909229, 47.2267663], [141.6718637, 47.284024], [141.6666016, 47.6331098], [141.8779502, 48.0525129], [141.8396914, 48.2903226], [141.5927985, 48.6003108], [141.54602, 48.782906], [141.5589617, 48.8367358], [141.7124835, 49.0569439], [141.7336205, 49.1916965], [141.7647488, 49.2798742], [141.7738859, 49.4000218], [141.8316775, 49.5358087], [141.8473854, 49.7692639], [141.821554, 49.962484], [141.8565491, 50.1304395], [141.7940518, 50.3773378], [141.7632262, 50.4230981], [141.7302094, 50.5248658], [141.7434767, 50.6508551], [141.7235147, 50.8343072], [141.7576408, 50.8944581], [141.9309524, 51.0780935], [141.8370576, 51.2666103], [141.7234665, 51.4115915], [141.5685726, 51.5282916], [141.4144046, 51.5613328], [141.2863753, 51.5043076], [141.2122194, 51.4483421], [141.206469, 51.3962815], [141.1455735, 51.2831954], [140.9950248, 51.1638623], [140.9994435, 51.0580302], [140.9584944, 50.9146048], [140.9376458, 50.8759292], [140.804955, 50.7422728], [140.797139, 50.4670539], [140.9832099, 50.1545589], [140.9957501, 50.0668532], [140.9835035, 50.0303635], [140.9122189, 49.9470413], [140.8347932, 49.757696], [140.8536481, 49.5771711], [140.8442061, 49.514519], [140.7354937, 49.3281559], [140.7288524, 49.2729423], [140.6603268, 49.1094717], [140.6884978, 49.0160086], [140.6885052, 48.9378365], [140.623395, 48.8209143], [140.4975903, 48.6991349], [140.4739818, 48.4351555], [140.4379379, 48.3536821], [140.2714082, 48.2086002], [139.9794938, 48.0446216], [139.7525425, 47.8315939], [139.5539813, 47.720147], [139.4746838, 47.5862886], [139.4096183, 47.5137058], [139.3093931, 47.310879], [139.0329652, 47.3960422], [138.9843928, 47.3469416], [138.9905118, 47.3166441], [138.9343073, 47.3189487], [138.8374943, 47.2747994], [138.7037088, 47.137501], [138.6035915, 47.0747181], [138.5020906, 46.937795], [138.4830338, 46.8554555], [138.4211024, 46.8100793], [138.3475965, 46.6917404], [138.3419107, 46.5386902], [138.1887336, 46.4594335], [138.0963654, 46.2898023], [138.1048718, 46.240996], [137.7725058, 45.9471008], [137.7448355, 45.8988804], [137.6919781, 45.8541286], [137.6875762, 45.8100448], [137.4887477, 45.6733925], [137.3591489, 45.6132753], [137.2969522, 45.5213622], [137.1964049, 45.4522481], [137.138798, 45.3752553], [137.0603763, 45.3540759], [136.9299651, 45.2584075], [136.8016365, 45.1986603], [136.7663348, 45.094402], [136.685146, 45.0406102], [136.6350476, 45.0272815], [136.5516469, 44.9480773], [136.5614807, 44.9214643], [136.4373486, 44.8185622], [136.4504391, 44.7717093], [136.4238363, 44.7735431], [136.3907905, 44.8026262], [136.3536072, 44.7981753], [136.3405511, 44.7519459], [136.303639, 44.7487045], [136.337882, 44.7308494], [136.2474299, 44.6826822], [136.2130014, 44.6352549], [136.227784, 44.5842855], [136.1935839, 44.5759708], [136.1927386, 44.5349728], [136.1466014, 44.4956243], [136.0364711, 44.4467644], [136.0073903, 44.4532953], [135.9909215, 44.4349389], [135.884224, 44.4129581], [135.8314083, 44.3653464], [135.8376244, 44.3341893], [135.7960806, 44.2661538], [135.7177507, 44.2387599], [135.6852872, 44.1917195], [135.6481633, 44.1758391], [135.6593546, 44.131138], [135.6323413, 44.0353227], [135.5302322, 44.0085258], [135.5307211, 43.9712544], [135.5152407, 43.9691536], [135.508239, 43.9422826], [135.4668016, 43.9564708], [135.452807, 43.9427298], [135.4701123, 43.9322407], [135.4566729, 43.8845125], [135.4823416, 43.8723201], [135.511098, 43.8828612], [135.5025592, 43.8497994], [135.4358151, 43.7865344], [135.436945, 43.7700255], [135.2781622, 43.6864664], [135.2528405, 43.701329], [135.259675, 43.7272027], [135.2205598, 43.7201137], [135.2348842, 43.6926768], [135.21732, 43.6335398], [135.1750249, 43.609783], [135.1804698, 43.5876021], [135.14896, 43.5458326], [135.1412472, 43.5052188], [135.0917079, 43.5004626], [134.9999513, 43.4618066], [134.9806644, 43.4684863], [134.9688478, 43.4408215], [134.794327, 43.3497226], [134.7793129, 43.3094037], [134.7296011, 43.3097591], [134.6242359, 43.2448061], [134.5577413, 43.2366562], [134.3445666, 43.1125342], [134.318188, 43.1222491], [134.1870936, 43.0718829], [134.1328357, 43.0205138], [134.1256813, 42.9950266], [134.0101302, 42.9500591], [133.9226813, 42.8671693], [133.9014327, 42.8701972], [133.8758209, 42.9100759], [133.7459937, 42.8444547], [133.7282053, 42.8116907], [133.6652458, 42.857171], [133.6248733, 42.8458346], [133.6126312, 42.8586529], [133.5967568, 42.8545159], [133.5990816, 42.8326461], [133.572627, 42.8376594], [133.5586327, 42.8198919], [133.5178935, 42.8345186], [133.5143708, 42.8159234], [133.4441892, 42.7959227], [133.4234504, 42.7754552], [133.3594274, 42.7616131], [133.300663, 42.7748015], [133.2907416, 42.7580049], [133.231675, 42.7510973], [133.2023586, 42.729897], [133.1980993, 42.7045482], [133.1769698, 42.7108505], [133.1500508, 42.6852638], [133.0311152, 42.6812041], [133.02424, 42.7333218], [133.0736344, 42.7448997], [132.9927879, 42.8068947], [132.9926314, 42.8496634], [132.9814053, 42.8353291], [132.9054466, 42.8332728], [132.8858688, 42.8055515], [132.9118284, 42.8000796], [132.8936573, 42.7659484], [132.8391463, 42.7433768], [132.8035124, 42.7666641], [132.8074084, 42.8049529], [132.7723149, 42.8251486], [132.7837483, 42.8920876], [132.760281, 42.9101452], [132.725995, 42.9046983], [132.6906729, 42.8536658], [132.6225296, 42.8597013], [132.597507, 42.8444185], [132.5510116, 42.8509198], [132.512153, 42.8782328], [132.5217993, 42.9006815], [132.4376826, 42.934284], [132.3454614, 42.9022825], [132.3740997, 42.8833187], [132.3587776, 42.8515719], [132.2913443, 42.8774323], [132.2927633, 42.9559475], [132.3188242, 43.0110659], [132.3057976, 43.0235397], [132.3164511, 43.0506146], [132.2960629, 43.0676929], [132.3194421, 43.0752409], [132.3406332, 43.1452563], [132.3246754, 43.1715842], [132.3584514, 43.1671823], [132.3894164, 43.1945903], [132.3756758, 43.2169638], [132.3344553, 43.2129762], [132.3109594, 43.2329747], [132.3486981, 43.2722982], [132.3362418, 43.3072023], [132.2809592, 43.3087896], [132.2919092, 43.2886125], [132.2378628, 43.2392623], [132.1147763, 43.1941453], [132.0327827, 43.1178122], [131.9327728, 43.0725584], [131.861651, 43.1018735], [131.8990255, 43.1412765], [131.8977602, 43.1688098], [131.9224066, 43.2039988], [132.0091236, 43.2367194], [132.0029859, 43.2615291], [132.0552804, 43.2848672], [132.0638277, 43.3156504], [132.0459182, 43.3311693], [132.0146298, 43.3274384], [131.9959544, 43.294195], [131.8838495, 43.3202591], [131.7821724, 43.3012336], [131.7615762, 43.3274481], [131.7726482, 43.3011283], [131.7575758, 43.292036], [131.7610106, 43.2344502], [131.7095697, 43.2116832], [131.7648357, 43.1968027], [131.7777522, 43.1796455], [131.7280241, 43.1618647], [131.6947648, 43.200851], [131.676081, 43.1880062], [131.667765, 43.1696147], [131.6978574, 43.1737926], [131.6810505, 43.1455834], [131.5642512, 43.041767], [131.571574, 42.9992012], [131.5269873, 43.0114404], [131.4781965, 42.979735], [131.4489337, 42.9836834], [131.418379, 42.9825509], [131.418124, 42.9661133], [131.4584885, 42.9808959], [131.4895861, 42.9742801], [131.5033416, 42.945227], [131.4748866, 42.9461691], [131.4482771, 42.9255711], [131.4020091, 42.9534515], [131.3781064, 42.9450791], [131.3782855, 42.9172968], [131.4093471, 42.8990806], [131.3836855, 42.8680654], [131.4210443, 42.8759817], [131.4347, 42.8627343], [131.3746403, 42.8362275], [131.3519186, 42.8133495], [131.35121, 42.78718], [131.2891927, 42.7908068], [131.2555908, 42.7674589], [131.2365503, 42.7019353], [131.2501059, 42.6909101], [131.2142202, 42.6693988], [131.2253943, 42.6541994], [131.2015101, 42.6332301], [131.2046263, 42.6080467], [131.2248495, 42.6070833], [131.2289852, 42.5881656], [131.2119492, 42.5854597], [131.2176195, 42.5587497], [131.1664443, 42.5720197], [131.1183512, 42.6697876], [131.1028673, 42.6711348], [131.0802904, 42.6378685], [130.9852089, 42.6479561], [130.9196072, 42.5926164], [130.8696582, 42.5975969], [130.8086014, 42.6328063], [130.8439999, 42.6499299], [130.8843637, 42.6411564], [130.91408, 42.61106], [130.94956, 42.6403601], [130.9460766, 42.6554115], [130.841049, 42.6561943], [130.8321208, 42.7030565], [130.7591522, 42.6826047], [130.7214377, 42.7014806], [130.67005, 42.67198], [130.65382, 42.6434701], [130.7012299, 42.6423899], [130.7321499, 42.60997], [130.7751599, 42.6072599], [130.77856, 42.57372], [130.83801, 42.56469], [130.84606, 42.5021999], [130.84228, 42.47377], [130.7773018, 42.4633893], [130.7462489, 42.3592523], [130.6899785, 42.2961676], [130.6545421, 42.324801], [130.6465382, 42.3496818], [130.6700985, 42.3671121], [130.6358361, 42.4263318], [130.5925964, 42.445877], [130.5922308, 42.4845339], [130.5532736, 42.5184452], [130.5748727, 42.5593667], [130.6033902, 42.5557324], [130.6271758, 42.5975765], [130.6133486, 42.6303139], [130.5615319, 42.6861896], [130.521415, 42.7014344], [130.45733, 42.686094], [130.407306, 42.712943], [130.405746, 42.728885], [130.4593221, 42.7699968], [130.658965, 42.845129], [130.700897, 42.844119], [130.711074, 42.829871], [130.762465, 42.835393], [130.79368, 42.876794], [130.8281, 42.880677], [130.882053, 42.850645], [130.941738, 42.874691], [130.972934, 42.855034], [131.035367, 42.860293], [131.010309, 42.910465], [131.026361, 42.925863], [131.108531, 42.913335], [131.142963, 42.96554], [131.107247, 42.972428], [131.111151, 43.00146], [131.095619, 43.021124], [131.114581, 43.066893], [131.162769, 43.069881], [131.15513, 43.094635], [131.210188, 43.148408], [131.1984301, 43.2342214], [131.248746, 43.267378], [131.272877, 43.375379], [131.311216, 43.394882], [131.287309, 43.439907], [131.3129067, 43.4944951], [131.2693685, 43.4929664], [131.1931176, 43.5293219], [131.2027527, 43.5819197], [131.226128, 43.581356], [131.237209, 43.6021242], [131.2082851, 43.6096825], [131.2327796, 43.6657093], [131.212684, 43.680855], [131.208811, 43.729514], [131.224229, 43.739045], [131.2096793, 43.8332157], [131.261229, 43.9366797], [131.2387071, 43.9529871], [131.2557281, 44.0305325], [131.3032214, 44.0439331], [131.1044767, 44.7075263], [131.080635, 44.724382], [131.085533, 44.741828], [131.062168, 44.756713], [131.056448, 44.784346], [131.009402, 44.784589], [131.00872, 44.810717], [130.964873, 44.8186518], [130.956857, 44.8480617], [131.071333, 44.87928], [131.094384, 44.894324], [131.081815, 44.92221], [131.099755, 44.935554], [131.152235, 44.944633], [131.188952, 44.934078], [131.19859, 44.916162], [131.270853, 44.921278], [131.350092, 44.987703], [131.372347, 44.975496], [131.401574, 44.983479], [131.427153, 44.965099], [131.489776, 44.968666], [131.475363, 44.991489], [131.678076, 45.113799], [131.6874539, 45.1299464], [131.6429472, 45.1571666], [131.6743719, 45.2132832], [131.7140579, 45.2323039], [131.7861404, 45.2096203], [131.7811131, 45.2438175], [131.8277514, 45.310096], [131.8803988, 45.3402847], [131.9101977, 45.3370393], [131.923683, 45.287708], [131.9964712, 45.2524701], [131.981627, 45.2165577], [131.9952714, 45.1696371], [132.0566921, 45.1110255], [132.0150007, 45.0942859], [131.9945089, 45.0512577], [132.0172548, 45.0326449], [132.1062236, 45.0229836], [132.1008919, 45.0015044], [132.1292199, 44.9650514], [132.1193959, 44.876947], [132.0372009, 44.8024092], [132.079913, 44.7041261], [132.2733754, 44.6476088], [132.2204161, 44.6526197], [132.2238922, 44.6257401], [132.2656917, 44.6138194], [132.2413158, 44.5992836], [132.2411656, 44.571531], [132.372758, 44.5291265], [132.3904995, 44.5433031], [132.4627179, 44.5322062], [132.5176495, 44.5877356], [132.5013417, 44.5955593], [132.4343937, 44.5702508], [132.3980015, 44.5759981], [132.3995938, 44.590251], [132.6047708, 44.6772772], [132.6469105, 44.742424], [132.6300877, 44.8185784], [132.6481122, 44.8549751], [132.719695, 44.9042384], [132.8470664, 45.0579392], [132.9479553, 45.0216041], [133.0374783, 45.0564054], [133.0613998, 45.0944982], [133.1324658, 45.1253341], [133.1202432, 45.1719538], [133.1299818, 45.1904729], [133.0862317, 45.2532682], [133.1044137, 45.2643557], [133.111552, 45.350648], [133.1352441, 45.3652314], [133.1410196, 45.4339918], [133.21288, 45.5134533], [133.3431222, 45.5666527], [133.4158295, 45.5779681], [133.403713, 45.5961539], [133.4401415, 45.6487015], [133.4828376, 45.6614144], [133.4727633, 45.6919374], [133.4349844, 45.7027913], [133.4437195, 45.7276258], [133.4662069, 45.7371205], [133.4590443, 45.7527784], [133.4758336, 45.7804914], [133.4627069, 45.8236242], [133.4862812, 45.8340266], [133.4837816, 45.8638366], [133.5050166, 45.865746], [133.504872, 45.8887458], [133.5404565, 45.8956891], [133.5766486, 45.8667041], [133.6109317, 45.9004901], [133.5964371, 45.9246197], [133.6100345, 45.941544], [133.6666597, 45.939662], [133.6755621, 45.9884115], [133.735593, 46.0540838], [133.7350144, 46.0772282], [133.6817822, 46.1376931], [133.6994298, 46.1621394], [133.7874158, 46.190334], [133.7958558, 46.221281]]]]}}]}