{"type": "FeatureCollection", "features": [{"type": "Feature", "properties": {}, "geometry": {"type": "Polygon", "coordinates": [[[37.9765625, 49.13134765625], [38.0206298828125, 49.152252197265625], [38.070465087890625, 49.148040771484375], [38.06207275390625, 49.09063720703125], [38.041015625, 49.0699462890625], [38.0772705078125, 48.99822998046875], [38.015838623046875, 48.97161865234375], [38.00994873046875, 48.954254150390625], [38.2100830078125, 48.923919677734375], [38.2310791015625, 48.854248046875], [38.27947998046875, 48.839141845703125], [38.296539306640625, 48.78314208984375], [38.26641845703125, 48.73272705078125], [38.30645751953125, 48.725372314453125], [38.2489013671875, 48.6673583984375], [38.27001953125, 48.5736083984375], [38.26007080078125, 48.54425048828125], [38.31390380859375, 48.520538330078125], [38.3101806640625, 48.449951171875], [38.370086669921875, 48.43182373046875], [38.39910888671875, 48.442291259765625], [38.480560302734375, 48.35760498046875], [38.47125244140625, 48.33612060546875], [38.409820556640625, 48.324127197265625], [38.423614501953125, 48.285614013671875], [38.46087646484375, 48.27239990234375], [38.566253662109375, 48.277618408203125], [38.607177734375, 48.206939697265625], [38.603668212890625, 48.179107666015625], [38.81402587890625, 48.111419677734375], [38.822723388671875, 48.094268798828125], [38.80023193359375, 48.056671142578125], [38.840118408203125, 48.0279541015625], [39.027099609375, 48.006622314453125], [39.031280517578125, 47.9498291015625], [39.055511474609375, 47.9173583984375], [39.036163330078125, 47.85699462890625], [38.877227783203125, 47.861236572265625], [38.8309326171875, 47.848236083984375], [38.77099609375, 47.78082275390625], [38.7344970703125, 47.6771240234375], [38.662139892578125, 47.68328857421875], [38.56219482421875, 47.626617431640625], [38.3529052734375, 47.607086181640625], [38.31903076171875, 47.591278076171875], [38.26031494140625, 47.492919921875], [38.2579345703125, 47.393218994140625], [38.188690185546875, 47.30096435546875], [38.291839599609375, 47.287017822265625], [38.29815673828125, 47.256011962890625], [38.203460693359375, 47.192291259765625], [38.201416015625, 47.1307373046875], [38.216644287109375, 47.103240966796875], [38.142242431640625, 47.03765869140625], [38.108062744140625, 47.026336669921875], [38.130035400390625, 47.07464599609375], [38.071533203125, 47.09979248046875], [38.026214599609375, 47.08160400390625], [37.861083984375, 47.10150146484375], [37.710296630859375, 47.07415771484375], [37.580718994140625, 47.09039306640625], [37.48291015625, 47.03594970703125], [37.335205078125, 46.8824462890625], [37.31298828125, 46.87554931640625], [37.3173828125, 46.90081787109375], [37.29541015625, 46.92022705078125], [37.22705078125, 46.936981201171875], [37.037750244140625, 46.87664794921875], [37.009552001953125, 46.926788330078125], [37.057037353515625, 46.95947265625], [37.11444091796875, 46.9656982421875], [37.093658447265625, 47.0], [37.11846923828125, 47.028167724609375], [37.070831298828125, 47.057525634765625], [37.04913330078125, 47.044769287109375], [37.01092529296875, 47.06561279296875], [36.9625244140625, 47.139678955078125], [36.856536865234375, 47.193695068359375], [36.938629150390625, 47.208984375], [36.919403076171875, 47.30126953125], [37.0289306640625, 47.28753662109375], [37.0723876953125, 47.30059814453125], [37.11444091796875, 47.3714599609375], [37.16363525390625, 47.34588623046875], [37.182403564453125, 47.353057861328125], [37.1845703125, 47.38787841796875], [37.22088623046875, 47.45526123046875], [37.15216064453125, 47.4638671875], [37.128692626953125, 47.451171875], [36.9442138671875, 47.57037353515625], [36.893310546875, 47.550872802734375], [36.797882080078125, 47.6102294921875], [36.7520751953125, 47.6016845703125], [36.752410888671875, 47.633880615234375], [36.720001220703125, 47.657745361328125], [36.747283935546875, 47.674896240234375], [36.703094482421875, 47.690826416015625], [36.652984619140625, 47.787811279296875], [36.583740234375, 47.7913818359375], [36.5694580078125, 47.867340087890625], [36.531341552734375, 47.887359619140625], [36.541717529296875, 47.910247802734375], [36.63385009765625, 47.921722412109375], [36.6134033203125, 47.957000732421875], [36.57659912109375, 47.970703125], [36.58465576171875, 48.076416015625], [36.665069580078125, 48.088043212890625], [36.839019775390625, 48.034454345703125], [36.892547607421875, 48.067535400390625], [36.871917724609375, 48.16741943359375], [36.927154541015625, 48.20147705078125], [36.904022216796875, 48.29766845703125], [36.81182861328125, 48.32568359375], [36.808929443359375, 48.413116455078125], [36.84722900390625, 48.4339599609375], [36.83544921875, 48.476318359375], [36.858551025390625, 48.492645263671875], [36.85418701171875, 48.516510009765625], [36.8909912109375, 48.533966064453125], [36.887420654296875, 48.5736083984375], [36.81915283203125, 48.5782470703125], [36.795074462890625, 48.5347900390625], [36.74853515625, 48.5308837890625], [36.749298095703125, 48.563934326171875], [36.78997802734375, 48.6011962890625], [36.732086181640625, 48.606048583984375], [36.710845947265625, 48.649566650390625], [36.690032958984375, 48.77752685546875], [36.718292236328125, 48.78924560546875], [36.820404052734375, 48.77239990234375], [36.890838623046875, 48.8009033203125], [37.0238037109375, 48.758880615234375], [37.03363037109375, 48.771636962890625], [36.998077392578125, 48.7913818359375], [37.018524169921875, 48.813690185546875], [37.062774658203125, 48.8116455078125], [37.088714599609375, 48.842376708984375], [37.134124755859375, 48.822174072265625], [37.1771240234375, 48.82830810546875], [37.180694580078125, 48.861297607421875], [37.22088623046875, 48.897552490234375], [37.3143310546875, 48.926513671875], [37.29180908203125, 48.979827880859375], [37.3487548828125, 49.015625], [37.369415283203125, 49.049346923828125], [37.609619140625, 49.150177001953125], [37.590179443359375, 49.175323486328125], [37.504852294921875, 49.1839599609375], [37.54693603515625, 49.227203369140625], [37.643096923828125, 49.228302001953125], [37.771148681640625, 49.204345703125], [37.833831787109375, 49.20751953125], [37.858795166015625, 49.230926513671875], [37.933624267578125, 49.199554443359375], [37.89404296875, 49.1873779296875], [37.8865966796875, 49.1602783203125], [37.9765625, 49.13134765625]]]}}]}