{"type": "FeatureCollection", "features": [{"type": "Feature", "properties": {}, "geometry": {"type": "MultiPolygon", "coordinates": [[[[32.85205078125, 46.0562744140625], [32.91357421875, 46.038787841796875], [32.978668212890625, 46.05328369140625], [32.999359130859375, 46.0352783203125], [33.045074462890625, 46.03790283203125], [33.057464599609375, 46.02520751953125], [33.0400390625, 46.002692179951794], [32.56956960593814, 46.0629083636081], [32.783203125, 46.04632568359375], [32.85205078125, 46.0562744140625]]], [[[34.982086181640625, 46.07781982421875], [35.051910400390625, 46.12823486328125], [35.04443359375, 46.14190673828125], [35.200439453125, 46.1829833984375], [35.2647705078125, 46.260498046875], [35.279510498046875, 46.255126953125], [35.161773681640625, 46.12823486328125], [34.982086181640625, 46.07781982421875]]], [[[32.166259765625, 46.14935302734375], [31.737152099609375, 46.22076416015625], [31.580322265625, 46.26275634765625], [31.52197265625, 46.313201904296875], [31.50439453125, 46.37335205078125], [31.52197265625, 46.36846923828125], [31.554367065429688, 46.29632568359375], [31.6181640625, 46.25921630859375], [32.07080078125, 46.18243408203125], [32.166259765625, 46.14935302734375]]], [[[33.345794677734375, 47.495269775390625], [33.365936279296875, 47.51434326171875], [33.485260009765625, 47.53271484375], [33.497406005859375, 47.5654296875], [33.5628662109375, 47.575347900390625], [33.588775634765625, 47.560028076171875], [33.575286865234375, 47.537567138671875], [33.58441162109375, 47.51470947265625], [33.62432861328125, 47.5115966796875], [33.64276123046875, 47.488494873046875], [33.93806445670319, 47.51812220333849], [33.954734046964774, 47.45494172087788], [34.157470703125, 47.473876953125], [34.241934656173896, 47.43145028820416], [34.30474853515625, 47.269775390625], [34.393310546875, 47.274871826171875], [34.428558349609375, 47.312896728515625], [34.506439208984375, 47.31390380859375], [34.475128173828125, 47.273651123046875], [34.50457763671875, 47.24652099609375], [34.49169921875, 47.222320556640625], [34.4991455078125, 47.141387939453125], [34.509552001953125, 47.11328125], [34.540435791015625, 47.099700927734375], [34.559661865234375, 47.0115966796875], [34.59210205078125, 46.99822998046875], [34.6083984375, 46.959197998046875], [34.72198486328125, 46.926513671875], [34.742645263671875, 46.8818359375], [34.78436279296875, 46.8671875], [34.7965087890625, 46.83953857421875], [34.747467041015625, 46.81170654296875], [34.71795654296875, 46.7447509765625], [34.63031005859375, 46.713409423828125], [34.6312255859375, 46.68902587890625], [34.732666015625, 46.66229248046875], [34.744354248046875, 46.629852294921875], [34.722137451171875, 46.598968505859375], [34.762176513671875, 46.547210693359375], [34.857635498046875, 46.541717529296875], [34.853759765625, 46.500152587890625], [34.923736572265625, 46.50030517578125], [35.029388427734375, 46.46478271484375], [35.060089111328125, 46.384429931640625], [35.05963134765625, 46.305999755859375], [35.10504150390625, 46.2950439453125], [35.03076171875, 46.25177001953125], [34.926513671875, 46.23504638671875], [34.8935546875, 46.25177001953125], [34.882171630859375, 46.22174072265625], [34.8388671875, 46.2076416015625], [34.812255859375, 46.1766357421875], [34.82421875, 46.07794189453125], [34.874359130859375, 45.92608642578125], [34.9775505065918, 45.762852670319745], [34.95969772338867, 45.756505236755196], [34.79902267456055, 45.8104952327091], [34.802284240722656, 45.90064111390547], [34.754390716552734, 45.90876379758855], [34.63371276855469, 45.98467724122193], [34.563331604003906, 45.99398022387975], [34.50960159301758, 45.94673351450278], [34.468746185302734, 45.94637543106672], [34.34703826904297, 46.05560277374621], [34.18292999267578, 46.06703769731702], [34.124908447265625, 46.10561307998295], [34.001312255859375, 46.12512860828035], [33.83892059326172, 46.20098303604598], [33.739356994628906, 46.18529759724044], [33.64700317382812, 46.230203044669985], [33.614044189453125, 46.226165432835074], [33.63687515258789, 46.14106909248771], [33.62039566040039, 46.136311222062865], [33.596527099609375, 46.155731201171875], [33.532470703125, 46.12152099609375], [33.557861328125, 46.0872802734375], [33.495758056640625, 46.067840576171875], [33.516267746564466, 46.02940202066287], [33.45923602314622, 46.049522164352], [33.4152712224428, 46.03510850187507], [33.36446950190373, 46.07490023419777], [33.370959234478164, 46.090085381272104], [33.342253676867614, 46.097030475883614], [33.29261159218771, 46.07120948993372], [33.278106362737304, 46.093567392720246], [33.30857640227288, 46.118633821517875], [33.25732948557494, 46.13987600779552], [33.22606288671485, 46.13440502514152], [33.211040769069626, 46.106408880953666], [33.197136433687845, 46.111622614660334], [33.225341796875, 46.15411376953125], [33.206576491944624, 46.172421647282704], [33.222403133622066, 46.21468486946458], [33.175048828125, 46.15313720703125], [33.12602133937631, 46.12384540513219], [33.03480905627737, 46.15607681913656], [33.021697248731215, 46.15089793099327], [33.02720390652155, 46.112149690780186], [32.909677044096554, 46.10492044010388], [32.770230555664426, 46.12188528699622], [32.60187140397963, 46.097468873518125], [32.543701171875, 46.0804443359375], [32.54271004442924, 46.06562255821939], [32.230013174223075, 46.13063120416362], [32.233372255652256, 46.166048180257434], [32.247406005859375, 46.17071533203125], [32.238856237231204, 46.18376421232145], [32.189688273980494, 46.177269132962806], [32.15701343987274, 46.20365714427143], [32.09900092979174, 46.21615835998108], [32.077880859375, 46.249481201171875], [31.963357698042444, 46.26409881124397], [31.8857421875, 46.32000732421875], [31.88232421875, 46.27911376953125], [31.819183349609375, 46.28057861328125], [31.7724609375, 46.30267333984375], [31.779953002929688, 46.331756591796875], [31.816741943359375, 46.34796142578125], [31.96826171875, 46.351043701171875], [32.061859130859375, 46.393768310546875], [32.0078125, 46.448944091796875], [31.91064453125, 46.45587158203125], [31.8162841796875, 46.483001708984375], [31.85174560546875, 46.521942138671875], [32.111663818359375, 46.512420654296875], [32.317535400390625, 46.464324951171875], [32.399658203125, 46.47833251953125], [32.427001953125, 46.49884033203125], [32.38105495513946, 46.49221791799846], [32.25656322550307, 46.59152484098851], [32.14066359842249, 46.55720700057964], [32.098870009814135, 46.61400426374826], [32.022794927673175, 46.626449314161505], [31.981992909245776, 46.65799451032484], [32.086225977887125, 46.683297868599205], [32.075138487680306, 46.73042598028729], [32.057373046875, 46.743896484375], [32.171599967284465, 46.752059946162206], [32.16959040481237, 46.763217879568884], [32.219436017106545, 46.7720539139724], [32.210365085996216, 46.80530526967948], [32.2505098231548, 46.8198011136449], [32.22959473099584, 46.84378778933771], [32.34320068359375, 46.7945556640625], [32.37205723232702, 46.799637955796754], [32.374053955078125, 46.83062744140625], [32.462850255401264, 46.84069444402667], [32.46847100637717, 46.8167017617005], [32.53129080060876, 46.82344542163651], [32.53461365563237, 46.88136857002462], [32.578171346382476, 46.8593106538288], [32.675140380859375, 46.84844970703125], [32.7086181640625, 46.82373046875], [32.82830810546875, 46.82794189453125], [32.94073486328125, 46.8619384765625], [32.826446533203125, 46.8680419921875], [32.8070068359375, 46.882232666015625], [32.92431640625, 46.9027099609375], [33.0101318359375, 46.9361572265625], [33.0054931640625, 46.9501953125], [32.957061767578125, 46.95355224609375], [32.951171875, 46.98565673828125], [32.97491455078125, 47.000213623046875], [33.0250244140625, 46.96990966796875], [33.061676025390625, 47.01531982421875], [33.0135498046875, 47.051055908203125], [32.921844482421875, 47.07733154296875], [32.915008544921875, 47.103515625], [32.97613525390625, 47.186767578125], [33.035888671875, 47.17791748046875], [33.083831787109375, 47.20892333984375], [33.120635986328125, 47.202423095703125], [33.136138916015625, 47.22430419921875], [33.105072021484375, 47.27239990234375], [33.120635986328125, 47.349395751953125], [33.09625244140625, 47.3848876953125], [33.042694091796875, 47.39007568359375], [33.026123046875, 47.408721923828125], [33.058868408203125, 47.452178955078125], [33.0850830078125, 47.415252685546875], [33.130096435546875, 47.422576904296875], [33.118621826171875, 47.523712158203125], [33.089263916015625, 47.5479736328125], [33.089263916015625, 47.582855224609375], [33.283416748046875, 47.539306640625], [33.31317138671875, 47.505950927734375], [33.345794677734375, 47.495269775390625]]]]}}]}